photo,title,city,state,country,latitude,longitude
geotagged/2014-06-19_GOPR0577.JPG,2,<a href=gallery/index.php?page=2 target=_blank><img src=geotagged/thumb/2014-06-19_GOPR0577.JPG width=200></a><br>Sakhalvasho<br> Kobuleti<br> Georgia<br> ge,cycloscope,5,41.7067,41.722
geotagged/2014-06-19_GOPR0587.JPG,2,<a href=gallery/index.php?page=3 target=_blank><img src=geotagged/thumb/2014-06-19_GOPR0587.JPG width=200></a><br>Tsikhisdziri<br> Kobuleti<br> Georgia<br> ge,cycloscope,5,41.7555,41.7537
geotagged/2014-06-19_GOPR0597.JPG,2,<a href=gallery/index.php?page=3 target=_blank><img src=geotagged/thumb/2014-06-19_GOPR0597.JPG width=200></a><br>Kobuleti<br> Kobuleti<br> Georgia<br> ge,cycloscope,5,41.8206,41.7739
geotagged/2014-06-19_GOPR0607.JPG,2,<a href=gallery/index.php?page=3 target=_blank><img src=geotagged/thumb/2014-06-19_GOPR0607.JPG width=200></a><br>Kobuleti<br> Kobuleti<br> Georgia<br> ge,cycloscope,5,41.8418,41.7786
geotagged/2014-06-19_GOPR0617.JPG,2,<a href=gallery/index.php?page=4 target=_blank><img src=geotagged/thumb/2014-06-19_GOPR0617.JPG width=200></a><br>Kobuleti<br> Georgia<br> ge,cycloscope,5,41.866,41.7792
geotagged/2014-06-19_GOPR0627.JPG,2,<a href=gallery/index.php?page=4 target=_blank><img src=geotagged/thumb/2014-06-19_GOPR0627.JPG width=200></a><br>Kobuleti<br> Georgia<br> ge,cycloscope,5,41.8965,41.7735
geotagged/2014-06-19_GOPR0637.JPG,2,<a href=gallery/index.php?page=4 target=_blank><img src=geotagged/thumb/2014-06-19_GOPR0637.JPG width=200></a><br>Shekvetili<br> Ozurgeti<br> Georgia<br> ge,cycloscope,5,41.9256,41.7734
geotagged/2014-06-19_GOPR0647.JPG,2,<a href=gallery/index.php?page=5 target=_blank><img src=geotagged/thumb/2014-06-19_GOPR0647.JPG width=200></a><br>Shekvetili<br> Ozurgeti<br> Georgia<br> ge,cycloscope,5,41.9571,41.772
geotagged/2014-06-19_GOPR0657.JPG,2,<a href=gallery/index.php?page=5 target=_blank><img src=geotagged/thumb/2014-06-19_GOPR0657.JPG width=200></a><br>Ureki<br> Ozurgeti<br> Georgia<br> ge,cycloscope,5,41.9859,41.784
geotagged/2014-06-19_GOPR0667.JPG,2,<a href=gallery/index.php?page=5 target=_blank><img src=geotagged/thumb/2014-06-19_GOPR0667.JPG width=200></a><br>Lanchkhuti<br> Georgia<br> ge,cycloscope,5,42.0106,41.7803
geotagged/2014-06-19_GOPR0677.JPG,2,<a href=gallery/index.php?page=6 target=_blank><img src=geotagged/thumb/2014-06-19_GOPR0677.JPG width=200></a><br>გრიგოლეთი (Grigoleti)<br> Lanchkhuti<br> Georgia<br> ge,cycloscope,5,42.0292,41.7481
geotagged/2014-06-19_GOPR0687.JPG,2,<a href=gallery/index.php?page=6 target=_blank><img src=geotagged/thumb/2014-06-19_GOPR0687.JPG width=200></a><br>Tskaltsminda<br> Lanchkhuti<br> Georgia<br> ge,cycloscope,5,42.0227,41.7523
geotagged/2014_06_15_GOPR0309.JPG,2,<a href=gallery/index.php?page=7 target=_blank><img src=geotagged/thumb/2014_06_15_GOPR0309.JPG width=200></a><br>Black Sea,cycloscope,5,42.4306,38.4815
geotagged/2014_06_15_GOPR9079.JPG,2,<a href=gallery/index.php?page=7 target=_blank><img src=geotagged/thumb/2014_06_15_GOPR9079.JPG width=200></a><br>Black Sea,cycloscope,5,42.8407,32.9212
geotagged/2014_06_15_GOPR9108.JPG,2,<a href=gallery/index.php?page=7 target=_blank><img src=geotagged/thumb/2014_06_15_GOPR9108.JPG width=200></a><br>Black Sea,cycloscope,5,42.6854,35.1037
geotagged/2014_06_15_GOPR9126.JPG,2,<a href=gallery/index.php?page=8 target=_blank><img src=geotagged/thumb/2014_06_15_GOPR9126.JPG width=200></a><br>Black Sea,cycloscope,5,42.6574,35.3941
geotagged/2014_06_16_GOPR0355.JPG,2,<a href=gallery/index.php?page=8 target=_blank><img src=geotagged/thumb/2014_06_16_GOPR0355.JPG width=200></a><br>Black Sea,cycloscope,5,42.4647,38.1461
geotagged/2014_06_16_GOPR0365.JPG,2,<a href=gallery/index.php?page=8 target=_blank><img src=geotagged/thumb/2014_06_16_GOPR0365.JPG width=200></a><br>Black Sea,cycloscope,5,42.4626,38.1708
geotagged/2014_06_16_GOPR0375.JPG,2,<a href=gallery/index.php?page=9 target=_blank><img src=geotagged/thumb/2014_06_16_GOPR0375.JPG width=200></a><br>Black Sea,cycloscope,5,42.4608,38.191
geotagged/2014_06_16_GOPR0385.JPG,2,<a href=gallery/index.php?page=9 target=_blank><img src=geotagged/thumb/2014_06_16_GOPR0385.JPG width=200></a><br>Black Sea,cycloscope,5,42.4589,38.2113
geotagged/2014_06_16_GOPR0395.JPG,2,<a href=gallery/index.php?page=9 target=_blank><img src=geotagged/thumb/2014_06_16_GOPR0395.JPG width=200></a><br>Black Sea,cycloscope,5,42.457,38.2316
geotagged/2014_06_16_GOPR0405.JPG,2,<a href=gallery/index.php?page=10 target=_blank><img src=geotagged/thumb/2014_06_16_GOPR0405.JPG width=200></a><br>Black Sea,cycloscope,5,42.4551,38.2519
geotagged/2014_06_16_GOPR0415.JPG,2,<a href=gallery/index.php?page=10 target=_blank><img src=geotagged/thumb/2014_06_16_GOPR0415.JPG width=200></a><br>Black Sea,cycloscope,5,42.4532,38.2722
geotagged/2014_06_16_GOPR0425.JPG,2,<a href=gallery/index.php?page=10 target=_blank><img src=geotagged/thumb/2014_06_16_GOPR0425.JPG width=200></a><br>Black Sea,cycloscope,5,42.4514,38.2925
geotagged/2014_06_16_GOPR0435.JPG,2,<a href=gallery/index.php?page=11 target=_blank><img src=geotagged/thumb/2014_06_16_GOPR0435.JPG width=200></a><br>Black Sea,cycloscope,5,42.4493,38.3131
geotagged/2014_06_16_GOPR0445.JPG,2,<a href=gallery/index.php?page=11 target=_blank><img src=geotagged/thumb/2014_06_16_GOPR0445.JPG width=200></a><br>Black Sea,cycloscope,5,42.4472,38.3338
geotagged/2014_06_16_GOPR0455.JPG,2,<a href=gallery/index.php?page=11 target=_blank><img src=geotagged/thumb/2014_06_16_GOPR0455.JPG width=200></a><br>Black Sea,cycloscope,5,42.4451,38.3546
geotagged/2014_06_16_GOPR0465.JPG,2,<a href=gallery/index.php?page=12 target=_blank><img src=geotagged/thumb/2014_06_16_GOPR0465.JPG width=200></a><br>Black Sea,cycloscope,5,42.4428,38.3753
geotagged/2014_06_16_GOPR0475.JPG,2,<a href=gallery/index.php?page=12 target=_blank><img src=geotagged/thumb/2014_06_16_GOPR0475.JPG width=200></a><br>Black Sea,cycloscope,5,42.4405,38.3961
geotagged/2014_06_16_GOPR0485.JPG,2,<a href=gallery/index.php?page=12 target=_blank><img src=geotagged/thumb/2014_06_16_GOPR0485.JPG width=200></a><br>Black Sea,cycloscope,5,42.4382,38.4169
geotagged/2014_06_16_GOPR0495.JPG,2,<a href=gallery/index.php?page=13 target=_blank><img src=geotagged/thumb/2014_06_16_GOPR0495.JPG width=200></a><br>Black Sea,cycloscope,5,42.4357,38.4377
geotagged/2014_06_16_GOPR0505.JPG,2,<a href=gallery/index.php?page=13 target=_blank><img src=geotagged/thumb/2014_06_16_GOPR0505.JPG width=200></a><br>Black Sea,cycloscope,5,42.4332,38.4585
geotagged/GOPR0315.JPG,2,<a href=gallery/index.php?page=13 target=_blank><img src=geotagged/thumb/GOPR0315.JPG width=200></a><br>DCIM\109GOPRO,cycloscope,5,41.7549,41.7487
geotagged/GOPR0356.JPG,2,<a href=gallery/index.php?page=14 target=_blank><img src=geotagged/thumb/GOPR0356.JPG width=200></a><br>DCIM\109GOPRO,cycloscope,5,41.6351,41.6154
geotagged/GOPR0366.JPG,2,<a href=gallery/index.php?page=14 target=_blank><img src=geotagged/thumb/GOPR0366.JPG width=200></a><br>DCIM\109GOPRO,cycloscope,5,41.6351,41.6154
geotagged/GOPR0376.JPG,2,<a href=gallery/index.php?page=14 target=_blank><img src=geotagged/thumb/GOPR0376.JPG width=200></a><br>DCIM\109GOPRO,cycloscope,5,41.6351,41.6154
geotagged/GOPR0416.JPG,2,<a href=gallery/index.php?page=16 target=_blank><img src=geotagged/thumb/GOPR0416.JPG width=200></a><br>DCIM\109GOPRO,cycloscope,5,41.6242,41.6111
geotagged/GOPR0426.JPG,2,<a href=gallery/index.php?page=16 target=_blank><img src=geotagged/thumb/GOPR0426.JPG width=200></a><br>DCIM\109GOPRO,cycloscope,5,41.6242,41.6111
geotagged/GOPR0436.JPG,2,<a href=gallery/index.php?page=16 target=_blank><img src=geotagged/thumb/GOPR0436.JPG width=200></a><br>DCIM\109GOPRO,cycloscope,5,41.6242,41.6111
geotagged/GOPR0446.JPG,2,<a href=gallery/index.php?page=17 target=_blank><img src=geotagged/thumb/GOPR0446.JPG width=200></a><br>DCIM\109GOPRO,cycloscope,5,41.6242,41.6111
geotagged/GOPR0456.JPG,2,<a href=gallery/index.php?page=17 target=_blank><img src=geotagged/thumb/GOPR0456.JPG width=200></a><br>DCIM\109GOPRO,cycloscope,5,41.6109,41.6129
geotagged/GOPR0466.JPG,2,<a href=gallery/index.php?page=17 target=_blank><img src=geotagged/thumb/GOPR0466.JPG width=200></a><br>DCIM\109GOPRO,cycloscope,5,41.63,41.6111
geotagged/GOPR0476.JPG,2,<a href=gallery/index.php?page=18 target=_blank><img src=geotagged/thumb/GOPR0476.JPG width=200></a><br>DCIM\109GOPRO,cycloscope,5,41.6417,41.6266
geotagged/GOPR0486.JPG,2,<a href=gallery/index.php?page=18 target=_blank><img src=geotagged/thumb/GOPR0486.JPG width=200></a><br>DCIM\109GOPRO,cycloscope,5,41.6434,41.6323
geotagged/GOPR0496.JPG,2,<a href=gallery/index.php?page=18 target=_blank><img src=geotagged/thumb/GOPR0496.JPG width=200></a><br>DCIM\109GOPRO,cycloscope,5,41.6433,41.6323
geotagged/GOPR0506.JPG,2,<a href=gallery/index.php?page=19 target=_blank><img src=geotagged/thumb/GOPR0506.JPG width=200></a><br>DCIM\109GOPRO,cycloscope,5,41.6458,41.6397
geotagged/GOPR0574.JPG,2,<a href=gallery/index.php?page=19 target=_blank><img src=geotagged/thumb/GOPR0574.JPG width=200></a><br>Cycloscope project - http://itcycloscope.weebly.com/,cycloscope,5,41.7067,41.722
geotagged/GOPR0584.JPG,2,<a href=gallery/index.php?page=19 target=_blank><img src=geotagged/thumb/GOPR0584.JPG width=200></a><br>Cycloscope project - http://itcycloscope.weebly.com/,cycloscope,5,41.7496,41.7424
geotagged/GOPR0594.JPG,2,<a href=gallery/index.php?page=20 target=_blank><img src=geotagged/thumb/GOPR0594.JPG width=200></a><br>Cycloscope project - http://itcycloscope.weebly.com/,cycloscope,5,41.8134,41.7755
geotagged/GOPR0604.JPG,2,<a href=gallery/index.php?page=20 target=_blank><img src=geotagged/thumb/GOPR0604.JPG width=200></a><br>Cycloscope project - http://itcycloscope.weebly.com/,cycloscope,5,41.8414,41.7783
geotagged/GOPR0614.JPG,2,<a href=gallery/index.php?page=20 target=_blank><img src=geotagged/thumb/GOPR0614.JPG width=200></a><br>Cycloscope project - http://itcycloscope.weebly.com/,cycloscope,5,41.8646,41.7795
geotagged/GOPR0624.JPG,2,<a href=gallery/index.php?page=21 target=_blank><img src=geotagged/thumb/GOPR0624.JPG width=200></a><br>Cycloscope project - http://itcycloscope.weebly.com/,cycloscope,5,41.8953,41.7734
geotagged/GOPR0634.JPG,2,<a href=gallery/index.php?page=21 target=_blank><img src=geotagged/thumb/GOPR0634.JPG width=200></a><br>Cycloscope project - http://itcycloscope.weebly.com/,cycloscope,5,41.924,41.7737
geotagged/GOPR0644.JPG,2,<a href=gallery/index.php?page=21 target=_blank><img src=geotagged/thumb/GOPR0644.JPG width=200></a><br>Cycloscope project - http://itcycloscope.weebly.com/,cycloscope,5,41.9563,41.7717
geotagged/GOPR0654.JPG,2,<a href=gallery/index.php?page=22 target=_blank><img src=geotagged/thumb/GOPR0654.JPG width=200></a><br>Cycloscope project - http://itcycloscope.weebly.com/,cycloscope,5,41.9813,41.7831
geotagged/GOPR0664.JPG,2,<a href=gallery/index.php?page=22 target=_blank><img src=geotagged/thumb/GOPR0664.JPG width=200></a><br>Cycloscope project - http://itcycloscope.weebly.com/,cycloscope,5,42.0097,41.7808
geotagged/GOPR0674.JPG,2,<a href=gallery/index.php?page=22 target=_blank><img src=geotagged/thumb/GOPR0674.JPG width=200></a><br>Cycloscope project - http://itcycloscope.weebly.com/,cycloscope,5,42.0282,41.7494
geotagged/GOPR0684.JPG,2,<a href=gallery/index.php?page=23 target=_blank><img src=geotagged/thumb/GOPR0684.JPG width=200></a><br>Cycloscope project - http://itcycloscope.weebly.com/,cycloscope,5,42.0258,41.7526
geotagged/GOPR0898.JPG,2,<a href=gallery/index.php?page=23 target=_blank><img src=geotagged/thumb/GOPR0898.JPG width=200></a><br>Bolognina<br> Bologna<br> BO<br> Italy<br> it,cycloscope,5,44.5241,11.3606
geotagged/GOPR0908.JPG,2,<a href=gallery/index.php?page=23 target=_blank><img src=geotagged/thumb/GOPR0908.JPG width=200></a><br>Granarolo dell'Emilia<br> BO<br> Italy<br> it,cycloscope,5,44.5306,11.3857
geotagged/GOPR0918.JPG,2,<a href=gallery/index.php?page=24 target=_blank><img src=geotagged/thumb/GOPR0918.JPG width=200></a><br>Granarolo dell'Emilia<br> BO<br> Italy<br> it,cycloscope,5,44.563,11.4103
geotagged/GOPR0928.JPG,2,<a href=gallery/index.php?page=24 target=_blank><img src=geotagged/thumb/GOPR0928.JPG width=200></a><br>Granarolo dell'Emilia<br> BO<br> Italy<br> it,cycloscope,5,44.5815,11.4379
geotagged/GOPR0938.JPG,2,<a href=gallery/index.php?page=24 target=_blank><img src=geotagged/thumb/GOPR0938.JPG width=200></a><br>Granarolo dell'Emilia<br> BO<br> Italy<br> it,cycloscope,5,44.5803,11.4735
geotagged/GOPR0948.JPG,2,<a href=gallery/index.php?page=25 target=_blank><img src=geotagged/thumb/GOPR0948.JPG width=200></a><br>Minerbio<br> BO<br> Italy<br> it,cycloscope,5,44.5872,11.5062
geotagged/GOPR0958.JPG,2,<a href=gallery/index.php?page=25 target=_blank><img src=geotagged/thumb/GOPR0958.JPG width=200></a><br>Minerbio<br> BO<br> Italy<br> it,cycloscope,5,44.6154,11.5358
geotagged/GOPR0968.JPG,2,<a href=gallery/index.php?page=25 target=_blank><img src=geotagged/thumb/GOPR0968.JPG width=200></a><br>Budrio<br> BO<br> Italy<br> it,cycloscope,5,44.6142,11.5772
geotagged/GOPR0978.JPG,2,<a href=gallery/index.php?page=26 target=_blank><img src=geotagged/thumb/GOPR0978.JPG width=200></a><br>Cycloscope project - http://itcycloscope.weebly.com/,cycloscope,5,42.515,41.8697
geotagged/GOPR0988.JPG,2,<a href=gallery/index.php?page=26 target=_blank><img src=geotagged/thumb/GOPR0988.JPG width=200></a><br>Cycloscope project - http://itcycloscope.weebly.com/,cycloscope,5,42.5298,41.879
geotagged/GOPR0998.JPG,2,<a href=gallery/index.php?page=26 target=_blank><img src=geotagged/thumb/GOPR0998.JPG width=200></a><br>Cycloscope project - http://itcycloscope.weebly.com/,cycloscope,5,42.5498,41.8895
geotagged/GOPR1008.JPG,2,<a href=gallery/index.php?page=27 target=_blank><img src=geotagged/thumb/GOPR1008.JPG width=200></a><br>Cycloscope project - http://itcycloscope.weebly.com/,cycloscope,5,42.5674,41.9017
geotagged/GOPR1018.JPG,2,<a href=gallery/index.php?page=27 target=_blank><img src=geotagged/thumb/GOPR1018.JPG width=200></a><br>Cycloscope project - http://itcycloscope.weebly.com/,cycloscope,5,42.5809,41.9215
geotagged/GOPR1028.JPG,2,<a href=gallery/index.php?page=27 target=_blank><img src=geotagged/thumb/GOPR1028.JPG width=200></a><br>Cycloscope project - http://itcycloscope.weebly.com/,cycloscope,5,42.5929,41.9437
geotagged/GOPR1038.JPG,2,<a href=gallery/index.php?page=28 target=_blank><img src=geotagged/thumb/GOPR1038.JPG width=200></a><br>Cycloscope project - http://itcycloscope.weebly.com/,cycloscope,5,42.6082,41.9631
geotagged/GOPR1048.JPG,2,<a href=gallery/index.php?page=28 target=_blank><img src=geotagged/thumb/GOPR1048.JPG width=200></a><br>Cycloscope project - http://itcycloscope.weebly.com/,cycloscope,5,42.6282,41.9777
geotagged/GOPR1058.JPG,2,<a href=gallery/index.php?page=28 target=_blank><img src=geotagged/thumb/GOPR1058.JPG width=200></a><br>Cycloscope project - http://itcycloscope.weebly.com/,cycloscope,5,42.6492,41.9977
geotagged/GOPR1068.JPG,2,<a href=gallery/index.php?page=29 target=_blank><img src=geotagged/thumb/GOPR1068.JPG width=200></a><br>Cycloscope project - http://itcycloscope.weebly.com/,cycloscope,5,42.6699,42.018
geotagged/GOPR1078.JPG,2,<a href=gallery/index.php?page=29 target=_blank><img src=geotagged/thumb/GOPR1078.JPG width=200></a><br>Cycloscope project - http://itcycloscope.weebly.com/,cycloscope,5,42.6843,42.0339
geotagged/GOPR1088.JPG,2,<a href=gallery/index.php?page=29 target=_blank><img src=geotagged/thumb/GOPR1088.JPG width=200></a><br>Cycloscope project - http://itcycloscope.weebly.com/,cycloscope,5,42.7097,42.0383
geotagged/GOPR1098.JPG,2,<a href=gallery/index.php?page=30 target=_blank><img src=geotagged/thumb/GOPR1098.JPG width=200></a><br>Cycloscope project - http://itcycloscope.weebly.com/,cycloscope,5,42.7287,42.0418
geotagged/GOPR1108.JPG,2,<a href=gallery/index.php?page=30 target=_blank><img src=geotagged/thumb/GOPR1108.JPG width=200></a><br>Portomaggiore<br> FE<br> Italy<br> it,cycloscope,5,44.6837,11.8831
geotagged/GOPR1118.JPG,2,<a href=gallery/index.php?page=30 target=_blank><img src=geotagged/thumb/GOPR1118.JPG width=200></a><br>Portomaggiore<br> FE<br> Italy<br> it,cycloscope,5,44.6766,11.9218
geotagged/GOPR1128.JPG,2,<a href=gallery/index.php?page=31 target=_blank><img src=geotagged/thumb/GOPR1128.JPG width=200></a><br>Cycloscope project - http://itcycloscope.weebly.com/,cycloscope,5,42.7365,42.0323
geotagged/GOPR1138.JPG,2,<a href=gallery/index.php?page=31 target=_blank><img src=geotagged/thumb/GOPR1138.JPG width=200></a><br>Cycloscope project - http://itcycloscope.weebly.com/,cycloscope,5,42.7476,42.0384
geotagged/GOPR1148.JPG,2,<a href=gallery/index.php?page=31 target=_blank><img src=geotagged/thumb/GOPR1148.JPG width=200></a><br>Cycloscope project - http://itcycloscope.weebly.com/,cycloscope,5,42.748,42.0338
geotagged/GOPR1158.JPG,2,<a href=gallery/index.php?page=32 target=_blank><img src=geotagged/thumb/GOPR1158.JPG width=200></a><br>Cycloscope project - http://itcycloscope.weebly.com/,cycloscope,5,42.7488,42.0339
geotagged/GOPR1168.JPG,2,<a href=gallery/index.php?page=32 target=_blank><img src=geotagged/thumb/GOPR1168.JPG width=200></a><br>Cycloscope project - http://itcycloscope.weebly.com/,cycloscope,5,42.7345,42.0299
geotagged/GOPR1178.JPG,2,<a href=gallery/index.php?page=32 target=_blank><img src=geotagged/thumb/GOPR1178.JPG width=200></a><br>Cycloscope project - http://itcycloscope.weebly.com/,cycloscope,5,42.7306,42.033
geotagged/GOPR1188.JPG,2,<a href=gallery/index.php?page=33 target=_blank><img src=geotagged/thumb/GOPR1188.JPG width=200></a><br>Cycloscope project - http://itcycloscope.weebly.com/,cycloscope,5,42.7403,42.0475
geotagged/GOPR1198.JPG,2,<a href=gallery/index.php?page=33 target=_blank><img src=geotagged/thumb/GOPR1198.JPG width=200></a><br>Cycloscope project - http://itcycloscope.weebly.com/,cycloscope,5,42.7557,42.0433
geotagged/GOPR1208.JPG,2,<a href=gallery/index.php?page=33 target=_blank><img src=geotagged/thumb/GOPR1208.JPG width=200></a><br>Cycloscope project - http://itcycloscope.weebly.com/,cycloscope,5,42.7583,42.0454
geotagged/GOPR1218.JPG,2,<a href=gallery/index.php?page=34 target=_blank><img src=geotagged/thumb/GOPR1218.JPG width=200></a><br>Cycloscope project - http://itcycloscope.weebly.com/,cycloscope,5,42.7687,42.0554
geotagged/GOPR1228.JPG,2,<a href=gallery/index.php?page=34 target=_blank><img src=geotagged/thumb/GOPR1228.JPG width=200></a><br>Cycloscope project - http://itcycloscope.weebly.com/,cycloscope,5,42.7876,42.0471
geotagged/GOPR1238.JPG,2,<a href=gallery/index.php?page=34 target=_blank><img src=geotagged/thumb/GOPR1238.JPG width=200></a><br>Cycloscope project - http://itcycloscope.weebly.com/,cycloscope,5,42.8106,42.0369
geotagged/GOPR1248.JPG,2,<a href=gallery/index.php?page=35 target=_blank><img src=geotagged/thumb/GOPR1248.JPG width=200></a><br>Cycloscope project - http://itcycloscope.weebly.com/,cycloscope,5,42.8305,42.0214
geotagged/GOPR1258.JPG,2,<a href=gallery/index.php?page=35 target=_blank><img src=geotagged/thumb/GOPR1258.JPG width=200></a><br>Cycloscope project - http://itcycloscope.weebly.com/,cycloscope,5,42.8562,42.0257
geotagged/GOPR1268.JPG,2,<a href=gallery/index.php?page=35 target=_blank><img src=geotagged/thumb/GOPR1268.JPG width=200></a><br>Cycloscope project - http://itcycloscope.weebly.com/,cycloscope,5,42.8648,42.0349
geotagged/GOPR1278.JPG,2,<a href=gallery/index.php?page=36 target=_blank><img src=geotagged/thumb/GOPR1278.JPG width=200></a><br>Cycloscope project - http://itcycloscope.weebly.com/,cycloscope,5,42.8868,42.0418
geotagged/GOPR1288.JPG,2,<a href=gallery/index.php?page=36 target=_blank><img src=geotagged/thumb/GOPR1288.JPG width=200></a><br>Cycloscope project - http://itcycloscope.weebly.com/,cycloscope,5,42.9065,42.0595
geotagged/GOPR1298.JPG,2,<a href=gallery/index.php?page=36 target=_blank><img src=geotagged/thumb/GOPR1298.JPG width=200></a><br>Mesola<br> FE<br> Italy<br> it,cycloscope,5,44.8853,12.1759
geotagged/GOPR1308.JPG,2,<a href=gallery/index.php?page=37 target=_blank><img src=geotagged/thumb/GOPR1308.JPG width=200></a><br>Codigoro<br> FE<br> Italy<br> it,cycloscope,5,44.8832,12.2062
geotagged/GOPR1319.JPG,2,<a href=gallery/index.php?page=37 target=_blank><img src=geotagged/thumb/GOPR1319.JPG width=200></a><br>Codigoro<br> FE<br> Italy<br> it,cycloscope,5,44.8826,12.2183
geotagged/GOPR1329.JPG,2,<a href=gallery/index.php?page=37 target=_blank><img src=geotagged/thumb/GOPR1329.JPG width=200></a><br>Mesola<br> FE<br> Italy<br> it,cycloscope,5,44.8929,12.2268
geotagged/GOPR1339.JPG,2,<a href=gallery/index.php?page=38 target=_blank><img src=geotagged/thumb/GOPR1339.JPG width=200></a><br>Mesola<br> FE<br> Italy<br> it,cycloscope,5,44.9191,12.2317
geotagged/GOPR1349.JPG,2,<a href=gallery/index.php?page=38 target=_blank><img src=geotagged/thumb/GOPR1349.JPG width=200></a><br>Ariano nel Polesine<br> RO<br> Italy<br> it,cycloscope,5,44.9315,12.2288
geotagged/GOPR1359.JPG,2,<a href=gallery/index.php?page=38 target=_blank><img src=geotagged/thumb/GOPR1359.JPG width=200></a><br>Ariano nel Polesine<br> RO<br> Italy<br> it,cycloscope,5,44.9651,12.2242
geotagged/GOPR1369.JPG,2,<a href=gallery/index.php?page=39 target=_blank><img src=geotagged/thumb/GOPR1369.JPG width=200></a><br>Taglio di Po<br> RO<br> Italy<br> it,cycloscope,5,44.9988,12.2234
geotagged/GOPR1379.JPG,2,<a href=gallery/index.php?page=39 target=_blank><img src=geotagged/thumb/GOPR1379.JPG width=200></a><br>Porto Viro<br> RO<br> Italy<br> it,cycloscope,5,45.0186,12.2291
geotagged/GOPR1389.JPG,2,<a href=gallery/index.php?page=39 target=_blank><img src=geotagged/thumb/GOPR1389.JPG width=200></a><br>Porto Viro<br> RO<br> Italy<br> it,cycloscope,5,45.0415,12.2426
geotagged/GOPR1399.JPG,2,<a href=gallery/index.php?page=40 target=_blank><img src=geotagged/thumb/GOPR1399.JPG width=200></a><br>Rosolina<br> RO<br> Italy<br> it,cycloscope,5,45.0661,12.2551
geotagged/GOPR1409.JPG,2,<a href=gallery/index.php?page=40 target=_blank><img src=geotagged/thumb/GOPR1409.JPG width=200></a><br>Rosolina<br> RO<br> Italy<br> it,cycloscope,5,45.0718,12.2951
geotagged/GOPR1419.JPG,2,<a href=gallery/index.php?page=40 target=_blank><img src=geotagged/thumb/GOPR1419.JPG width=200></a><br>Rosolina<br> RO<br> Italy<br> it,cycloscope,5,45.0883,12.296
geotagged/GOPR1429.JPG,2,<a href=gallery/index.php?page=41 target=_blank><img src=geotagged/thumb/GOPR1429.JPG width=200></a><br>Rosolina<br> RO<br> Italy<br> it,cycloscope,5,45.1158,12.3073
geotagged/GOPR1439.JPG,2,<a href=gallery/index.php?page=41 target=_blank><img src=geotagged/thumb/GOPR1439.JPG width=200></a><br>Rosolina<br> RO<br> Italy<br> it,cycloscope,5,45.1156,12.2688
geotagged/GOPR1449.JPG,2,<a href=gallery/index.php?page=41 target=_blank><img src=geotagged/thumb/GOPR1449.JPG width=200></a><br>Rosolina<br> RO<br> Italy<br> it,cycloscope,5,45.1102,12.2456
geotagged/GOPR1459.JPG,2,<a href=gallery/index.php?page=42 target=_blank><img src=geotagged/thumb/GOPR1459.JPG width=200></a><br>Chioggia<br> VE<br> Italy<br> it,cycloscope,5,45.1341,12.2571
geotagged/GOPR1469.JPG,2,<a href=gallery/index.php?page=42 target=_blank><img src=geotagged/thumb/GOPR1469.JPG width=200></a><br>Chioggia<br> VE<br> Italy<br> it,cycloscope,5,45.1565,12.2669
geotagged/GOPR1479.JPG,2,<a href=gallery/index.php?page=42 target=_blank><img src=geotagged/thumb/GOPR1479.JPG width=200></a><br>Brondolo<br> Chioggia<br> VE<br> Italy<br> it,cycloscope,5,45.1796,12.2701
geotagged/GOPR1489.JPG,2,<a href=gallery/index.php?page=43 target=_blank><img src=geotagged/thumb/GOPR1489.JPG width=200></a><br>Brondolo<br> Chioggia<br> VE<br> Italy<br> it,cycloscope,5,45.1944,12.282
geotagged/GOPR1499.JPG,2,<a href=gallery/index.php?page=43 target=_blank><img src=geotagged/thumb/GOPR1499.JPG width=200></a><br>Borgo San Giovanni<br> Chioggia<br> VE<br> Italy<br> it,cycloscope,5,45.2148,12.2908
geotagged/GOPR1509.JPG,2,<a href=gallery/index.php?page=43 target=_blank><img src=geotagged/thumb/GOPR1509.JPG width=200></a><br>Venice<br> VE<br> Italy<br> it,cycloscope,5,45.2674,12.3017
geotagged/GOPR1519.JPG,2,<a href=gallery/index.php?page=44 target=_blank><img src=geotagged/thumb/GOPR1519.JPG width=200></a><br>Venice<br> VE<br> Italy<br> it,cycloscope,5,45.2903,12.3047
geotagged/GOPR1529.JPG,2,<a href=gallery/index.php?page=44 target=_blank><img src=geotagged/thumb/GOPR1529.JPG width=200></a><br>Venice<br> VE<br> Italy<br> it,cycloscope,5,45.3107,12.3105
geotagged/GOPR1539.JPG,2,<a href=gallery/index.php?page=44 target=_blank><img src=geotagged/thumb/GOPR1539.JPG width=200></a><br>Venice<br> VE<br> Italy<br> it,cycloscope,5,45.3253,12.3192
geotagged/GOPR1549.JPG,2,<a href=gallery/index.php?page=45 target=_blank><img src=geotagged/thumb/GOPR1549.JPG width=200></a><br>Venice<br> VE<br> Italy<br> it,cycloscope,5,45.3278,12.3215
geotagged/GOPR1559.JPG,2,<a href=gallery/index.php?page=45 target=_blank><img src=geotagged/thumb/GOPR1559.JPG width=200></a><br>Venice<br> VE<br> Italy<br> it,cycloscope,5,45.3328,12.3167
geotagged/GOPR1569.JPG,2,<a href=gallery/index.php?page=45 target=_blank><img src=geotagged/thumb/GOPR1569.JPG width=200></a><br>Venice<br> VE<br> Italy<br> it,cycloscope,5,45.3246,12.3191
geotagged/GOPR1579.JPG,2,<a href=gallery/index.php?page=46 target=_blank><img src=geotagged/thumb/GOPR1579.JPG width=200></a><br>Venice<br> VE<br> Italy<br> it,cycloscope,5,45.3281,12.3216
geotagged/GOPR1589.JPG,2,<a href=gallery/index.php?page=46 target=_blank><img src=geotagged/thumb/GOPR1589.JPG width=200></a><br>Venice<br> VE<br> Italy<br> it,cycloscope,5,45.3489,12.3216
geotagged/GOPR1599.JPG,2,<a href=gallery/index.php?page=46 target=_blank><img src=geotagged/thumb/GOPR1599.JPG width=200></a><br>Venice<br> VE<br> Italy<br> it,cycloscope,5,45.3719,12.3369
geotagged/GOPR1609.JPG,2,<a href=gallery/index.php?page=47 target=_blank><img src=geotagged/thumb/GOPR1609.JPG width=200></a><br>Venice<br> VE<br> Italy<br> it,cycloscope,5,45.3943,12.3553
geotagged/GOPR1619.JPG,2,<a href=gallery/index.php?page=47 target=_blank><img src=geotagged/thumb/GOPR1619.JPG width=200></a><br>Venice<br> VE<br> Italy<br> it,cycloscope,5,45.4174,12.3686
geotagged/GOPR1629.JPG,2,<a href=gallery/index.php?page=47 target=_blank><img src=geotagged/thumb/GOPR1629.JPG width=200></a><br>Cavallino-Treporti<br> VE<br> Italy<br> it,cycloscope,5,45.4564,12.4505
geotagged/GOPR1639.JPG,2,<a href=gallery/index.php?page=48 target=_blank><img src=geotagged/thumb/GOPR1639.JPG width=200></a><br>Cavallino-Treporti<br> VE<br> Italy<br> it,cycloscope,5,45.4666,12.488
geotagged/GOPR1649.JPG,2,<a href=gallery/index.php?page=48 target=_blank><img src=geotagged/thumb/GOPR1649.JPG width=200></a><br>Cavallino-Treporti<br> VE<br> Italy<br> it,cycloscope,5,45.4771,12.5242
geotagged/GOPR1659.JPG,2,<a href=gallery/index.php?page=48 target=_blank><img src=geotagged/thumb/GOPR1659.JPG width=200></a><br>Cavallino-Treporti<br> VE<br> Italy<br> it,cycloscope,5,45.4827,12.5581
geotagged/GOPR1669.JPG,2,<a href=gallery/index.php?page=49 target=_blank><img src=geotagged/thumb/GOPR1669.JPG width=200></a><br>Jesolo<br> VE<br> Italy<br> it,cycloscope,5,45.4902,12.5879
geotagged/GOPR1679.JPG,2,<a href=gallery/index.php?page=49 target=_blank><img src=geotagged/thumb/GOPR1679.JPG width=200></a><br>Jesolo<br> VE<br> Italy<br> it,cycloscope,5,45.4861,12.598
geotagged/GOPR1689.JPG,2,<a href=gallery/index.php?page=49 target=_blank><img src=geotagged/thumb/GOPR1689.JPG width=200></a><br>Jesolo<br> VE<br> Italy<br> it,cycloscope,5,45.4915,12.6067
geotagged/GOPR1699.JPG,2,<a href=gallery/index.php?page=50 target=_blank><img src=geotagged/thumb/GOPR1699.JPG width=200></a><br>Jesolo<br> VE<br> Italy<br> it,cycloscope,5,45.5044,12.6403
geotagged/GOPR1709.JPG,2,<a href=gallery/index.php?page=50 target=_blank><img src=geotagged/thumb/GOPR1709.JPG width=200></a><br>Jesolo<br> VE<br> Italy<br> it,cycloscope,5,45.5127,12.6672
geotagged/GOPR1719.JPG,2,<a href=gallery/index.php?page=50 target=_blank><img src=geotagged/thumb/GOPR1719.JPG width=200></a><br>Jesolo<br> VE<br> Italy<br> it,cycloscope,5,45.5247,12.7019
geotagged/GOPR1729.JPG,2,<a href=gallery/index.php?page=51 target=_blank><img src=geotagged/thumb/GOPR1729.JPG width=200></a><br>Jesolo<br> VE<br> Italy<br> it,cycloscope,5,45.5404,12.7215
geotagged/GOPR1739.JPG,2,<a href=gallery/index.php?page=51 target=_blank><img src=geotagged/thumb/GOPR1739.JPG width=200></a><br>Eraclea<br> VE<br> Italy<br> it,cycloscope,5,45.5538,12.7393
geotagged/GOPR1749.JPG,2,<a href=gallery/index.php?page=51 target=_blank><img src=geotagged/thumb/GOPR1749.JPG width=200></a><br>Eraclea<br> VE<br> Italy<br> it,cycloscope,5,45.5547,12.7713
geotagged/GOPR1759.JPG,2,<a href=gallery/index.php?page=52 target=_blank><img src=geotagged/thumb/GOPR1759.JPG width=200></a><br>Caorle<br> VE<br> Italy<br> it,cycloscope,5,45.563,12.7929
geotagged/GOPR1769.JPG,2,<a href=gallery/index.php?page=52 target=_blank><img src=geotagged/thumb/GOPR1769.JPG width=200></a><br>Caorle<br> VE<br> Italy<br> it,cycloscope,5,45.5679,12.8041
geotagged/GOPR1779.JPG,2,<a href=gallery/index.php?page=52 target=_blank><img src=geotagged/thumb/GOPR1779.JPG width=200></a><br>Caorle<br> VE<br> Italy<br> it,cycloscope,5,45.5708,12.8001
geotagged/GOPR1789.JPG,2,<a href=gallery/index.php?page=53 target=_blank><img src=geotagged/thumb/GOPR1789.JPG width=200></a><br>Caorle<br> VE<br> Italy<br> it,cycloscope,5,45.5735,12.8034
geotagged/GOPR1799.JPG,2,<a href=gallery/index.php?page=53 target=_blank><img src=geotagged/thumb/GOPR1799.JPG width=200></a><br>Caorle<br> VE<br> Italy<br> it,cycloscope,5,45.5735,12.8034
geotagged/GOPR1809.JPG,2,<a href=gallery/index.php?page=53 target=_blank><img src=geotagged/thumb/GOPR1809.JPG width=200></a><br>Caorle<br> VE<br> Italy<br> it,cycloscope,5,45.5811,12.828
geotagged/GOPR1819.JPG,2,<a href=gallery/index.php?page=54 target=_blank><img src=geotagged/thumb/GOPR1819.JPG width=200></a><br>Caorle<br> VE<br> Italy<br> it,cycloscope,5,45.6054,12.804
geotagged/GOPR1829.JPG,2,<a href=gallery/index.php?page=54 target=_blank><img src=geotagged/thumb/GOPR1829.JPG width=200></a><br>Caorle<br> VE<br> Italy<br> it,cycloscope,5,45.6303,12.7782
geotagged/GOPR1839.JPG,2,<a href=gallery/index.php?page=54 target=_blank><img src=geotagged/thumb/GOPR1839.JPG width=200></a><br>Caorle<br> VE<br> Italy<br> it,cycloscope,5,45.6397,12.754
geotagged/GOPR1849.JPG,2,<a href=gallery/index.php?page=55 target=_blank><img src=geotagged/thumb/GOPR1849.JPG width=200></a><br>Caorle<br> VE<br> Italy<br> it,cycloscope,5,45.6463,12.7893
geotagged/GOPR1859.JPG,2,<a href=gallery/index.php?page=55 target=_blank><img src=geotagged/thumb/GOPR1859.JPG width=200></a><br>San Stino di Livenza<br> VE<br> Italy<br> it,cycloscope,5,45.6709,12.8082
geotagged/GOPR1869.JPG,2,<a href=gallery/index.php?page=55 target=_blank><img src=geotagged/thumb/GOPR1869.JPG width=200></a><br>Caorle<br> VE<br> Italy<br> it,cycloscope,5,45.6856,12.8424
geotagged/GOPR1879.JPG,2,<a href=gallery/index.php?page=56 target=_blank><img src=geotagged/thumb/GOPR1879.JPG width=200></a><br>Concordia Sagittaria<br> VE<br> Italy<br> it,cycloscope,5,45.7044,12.8668
geotagged/GOPR1889.JPG,2,<a href=gallery/index.php?page=56 target=_blank><img src=geotagged/thumb/GOPR1889.JPG width=200></a><br>Viola di Giussago<br> Portogruaro<br> VE<br> Italy<br> it,cycloscope,5,45.7173,12.9042
geotagged/GOPR1899.JPG,2,<a href=gallery/index.php?page=56 target=_blank><img src=geotagged/thumb/GOPR1899.JPG width=200></a><br>Viola di Giussago<br> Portogruaro<br> VE<br> Italy<br> it,cycloscope,5,45.731,12.9485
geotagged/GOPR1909.JPG,2,<a href=gallery/index.php?page=57 target=_blank><img src=geotagged/thumb/GOPR1909.JPG width=200></a><br>San Michele al Tagliamento<br> VE<br> Italy<br> it,cycloscope,5,45.7479,12.9898
geotagged/GOPR1919.JPG,2,<a href=gallery/index.php?page=57 target=_blank><img src=geotagged/thumb/GOPR1919.JPG width=200></a><br>Latisana<br> UD<br> Italy<br> it,cycloscope,5,45.7712,12.9984
geotagged/GOPR1929.JPG,2,<a href=gallery/index.php?page=57 target=_blank><img src=geotagged/thumb/GOPR1929.JPG width=200></a><br>Latisana<br> UD<br> Italy<br> it,cycloscope,5,45.7909,13.0165
geotagged/GOPR1939.JPG,2,<a href=gallery/index.php?page=58 target=_blank><img src=geotagged/thumb/GOPR1939.JPG width=200></a><br>Palazzolo dello Stella<br> UD<br> Italy<br> it,cycloscope,5,45.7994,13.0584
geotagged/GOPR1949.JPG,2,<a href=gallery/index.php?page=58 target=_blank><img src=geotagged/thumb/GOPR1949.JPG width=200></a><br>Muzzana del Turgnano<br> UD<br> Italy<br> it,cycloscope,5,45.8112,13.1057
geotagged/GOPR1959.JPG,2,<a href=gallery/index.php?page=58 target=_blank><img src=geotagged/thumb/GOPR1959.JPG width=200></a><br>Muzzana del Turgnano<br> UD<br> Italy<br> it,cycloscope,5,45.8234,13.1494
geotagged/GOPR1969.JPG,2,<a href=gallery/index.php?page=59 target=_blank><img src=geotagged/thumb/GOPR1969.JPG width=200></a><br>San Giorgio di Nogaro<br> UD<br> Italy<br> it,cycloscope,5,45.8336,13.1851
geotagged/GOPR1979.JPG,2,<a href=gallery/index.php?page=59 target=_blank><img src=geotagged/thumb/GOPR1979.JPG width=200></a><br>San Giorgio di Nogaro<br> UD<br> Italy<br> it,cycloscope,5,45.8339,13.2149
geotagged/GOPR1989.JPG,2,<a href=gallery/index.php?page=59 target=_blank><img src=geotagged/thumb/GOPR1989.JPG width=200></a><br>San Giorgio di Nogaro<br> UD<br> Italy<br> it,cycloscope,5,45.8425,13.2147
geotagged/GOPR1999.JPG,2,<a href=gallery/index.php?page=60 target=_blank><img src=geotagged/thumb/GOPR1999.JPG width=200></a><br>San Giorgio di Nogaro<br> UD<br> Italy<br> it,cycloscope,5,45.8334,13.2155
geotagged/GOPR2009.JPG,2,<a href=gallery/index.php?page=60 target=_blank><img src=geotagged/thumb/GOPR2009.JPG width=200></a><br>Torviscosa<br> UD<br> Italy<br> it,cycloscope,5,45.828,13.2487
geotagged/GOPR2019.JPG,2,<a href=gallery/index.php?page=60 target=_blank><img src=geotagged/thumb/GOPR2019.JPG width=200></a><br>Bagnaria Arsa<br> UD<br> Italy<br> it,cycloscope,5,45.8282,13.2929
geotagged/GOPR2029.JPG,2,<a href=gallery/index.php?page=61 target=_blank><img src=geotagged/thumb/GOPR2029.JPG width=200></a><br>Cervignano del Friuli<br> UD<br> Italy<br> it,cycloscope,5,45.8292,13.331
geotagged/GOPR2039.JPG,2,<a href=gallery/index.php?page=61 target=_blank><img src=geotagged/thumb/GOPR2039.JPG width=200></a><br>Cervignano del Friuli<br> UD<br> Italy<br> it,cycloscope,5,45.817,13.3398
geotagged/GOPR2049.JPG,2,<a href=gallery/index.php?page=61 target=_blank><img src=geotagged/thumb/GOPR2049.JPG width=200></a><br>Terzo d'Aquileia<br> UD<br> Italy<br> it,cycloscope,5,45.8075,13.3685
geotagged/GOPR2059.JPG,2,<a href=gallery/index.php?page=62 target=_blank><img src=geotagged/thumb/GOPR2059.JPG width=200></a><br>Crocara<br> Fiumicello<br> UD<br> Italy<br> it,cycloscope,5,45.8057,13.4088
geotagged/GOPR2069.JPG,2,<a href=gallery/index.php?page=62 target=_blank><img src=geotagged/thumb/GOPR2069.JPG width=200></a><br>San Canzian d'Isonzo<br> GO<br> Italy<br> it,cycloscope,5,45.8027,13.4495
geotagged/GOPR2079.JPG,2,<a href=gallery/index.php?page=62 target=_blank><img src=geotagged/thumb/GOPR2079.JPG width=200></a><br>Staranzano<br> GO<br> Italy<br> it,cycloscope,5,45.806,13.4936
geotagged/GOPR2089.JPG,2,<a href=gallery/index.php?page=63 target=_blank><img src=geotagged/thumb/GOPR2089.JPG width=200></a><br>Monfalcone<br> GO<br> Italy<br> it,cycloscope,5,45.8064,13.5337
geotagged/GOPR2099.JPG,2,<a href=gallery/index.php?page=63 target=_blank><img src=geotagged/thumb/GOPR2099.JPG width=200></a><br>Monfalcone<br> GO<br> Italy<br> it,cycloscope,5,45.802,13.5466
geotagged/GOPR2109.JPG,2,<a href=gallery/index.php?page=63 target=_blank><img src=geotagged/thumb/GOPR2109.JPG width=200></a><br>Duino-Aurisina / Devin - Nabrežina<br> TS<br> Italy<br> it,cycloscope,5,45.7936,13.5845
geotagged/GOPR2119.JPG,2,<a href=gallery/index.php?page=64 target=_blank><img src=geotagged/thumb/GOPR2119.JPG width=200></a><br>Duino-Aurisina / Devin - Nabrežina<br> TS<br> Italy<br> it,cycloscope,5,45.7749,13.6074
geotagged/GOPR2129.JPG,2,<a href=gallery/index.php?page=64 target=_blank><img src=geotagged/thumb/GOPR2129.JPG width=200></a><br>Aurisina / Nabrežina<br> Duino-Aurisina / Devin - Nabrežina<br> TS<br> Italy<br> it,cycloscope,5,45.7662,13.6392
geotagged/GOPR2139.JPG,2,<a href=gallery/index.php?page=64 target=_blank><img src=geotagged/thumb/GOPR2139.JPG width=200></a><br>Triest<br> TS<br> Italy<br> it,cycloscope,5,45.742,13.67
geotagged/GOPR2149.JPG,2,<a href=gallery/index.php?page=65 target=_blank><img src=geotagged/thumb/GOPR2149.JPG width=200></a><br>Triest<br> TS<br> Italy<br> it,cycloscope,5,45.7116,13.7119
geotagged/GOPR2159.JPG,2,<a href=gallery/index.php?page=65 target=_blank><img src=geotagged/thumb/GOPR2159.JPG width=200></a><br>Barcola / Barkovlje<br> Triest<br> TS<br> Italy<br> it,cycloscope,5,45.6864,13.7473
geotagged/GOPR2169.JPG,2,<a href=gallery/index.php?page=65 target=_blank><img src=geotagged/thumb/GOPR2169.JPG width=200></a><br>Roiano / Rojan<br> Triest<br> TS<br> Italy<br> it,cycloscope,5,45.6635,13.7692
geotagged/GOPR2179.JPG,2,<a href=gallery/index.php?page=66 target=_blank><img src=geotagged/thumb/GOPR2179.JPG width=200></a><br>Borgo Teresiano<br> Triest<br> TS<br> Italy<br> it,cycloscope,5,45.6495,13.7726
geotagged/GOPR2189.JPG,2,<a href=gallery/index.php?page=66 target=_blank><img src=geotagged/thumb/GOPR2189.JPG width=200></a><br>Maddalena<br> Triest<br> TS<br> Italy<br> it,cycloscope,5,45.6419,13.7907
geotagged/GOPR2199.JPG,2,<a href=gallery/index.php?page=66 target=_blank><img src=geotagged/thumb/GOPR2199.JPG width=200></a><br>Rozzol<br> Triest<br> TS<br> Italy<br> it,cycloscope,5,45.6417,13.8131
geotagged/GOPR2209.JPG,2,<a href=gallery/index.php?page=67 target=_blank><img src=geotagged/thumb/GOPR2209.JPG width=200></a><br>Cattinara / Katinara<br> Triest<br> TS<br> Italy<br> it,cycloscope,5,45.6361,13.8321
geotagged/GOPR2219.JPG,2,<a href=gallery/index.php?page=67 target=_blank><img src=geotagged/thumb/GOPR2219.JPG width=200></a><br>Cattinara / Katinara<br> Triest<br> TS<br> Italy<br> it,cycloscope,5,45.637,13.8376
geotagged/GOPR2241.JPG,2,<a href=gallery/index.php?page=68 target=_blank><img src=geotagged/thumb/GOPR2241.JPG width=200></a><br>Cattinara / Katinara<br> Triest<br> TS<br> Italy<br> it,cycloscope,5,45.6391,13.8498
geotagged/GOPR2251.JPG,2,<a href=gallery/index.php?page=68 target=_blank><img src=geotagged/thumb/GOPR2251.JPG width=200></a><br>Cattinara / Katinara<br> Triest<br> TS<br> Italy<br> it,cycloscope,5,45.6404,13.8603
geotagged/GOPR2261.JPG,2,<a href=gallery/index.php?page=68 target=_blank><img src=geotagged/thumb/GOPR2261.JPG width=200></a><br>Melara<br> Triest<br> TS<br> Italy<br> it,cycloscope,5,45.6481,13.8538
geotagged/GOPR2271.JPG,2,<a href=gallery/index.php?page=69 target=_blank><img src=geotagged/thumb/GOPR2271.JPG width=200></a><br>San Giovanni / Sveti Ivan<br> Triest<br> TS<br> Italy<br> it,cycloscope,5,45.6715,13.8259
geotagged/GOPR2281.JPG,2,<a href=gallery/index.php?page=69 target=_blank><img src=geotagged/thumb/GOPR2281.JPG width=200></a><br>Piscianzi / Piščanci<br> Triest<br> TS<br> Italy<br> it,cycloscope,5,45.6884,13.7909
geotagged/GOPR2291.JPG,2,<a href=gallery/index.php?page=69 target=_blank><img src=geotagged/thumb/GOPR2291.JPG width=200></a><br>Piscianzi / Piščanci<br> Triest<br> TS<br> Italy<br> it,cycloscope,5,45.6884,13.791
geotagged/GOPR2301.JPG,2,<a href=gallery/index.php?page=70 target=_blank><img src=geotagged/thumb/GOPR2301.JPG width=200></a><br>Monrupino / Repentabor<br> TS<br> Italy<br> it,cycloscope,5,45.6984,13.8311
geotagged/GOPR2311.JPG,2,<a href=gallery/index.php?page=70 target=_blank><img src=geotagged/thumb/GOPR2311.JPG width=200></a><br>Sežana<br> Slovenia<br> si,cycloscope,5,45.7055,13.8636
geotagged/GOPR2321.JPG,2,<a href=gallery/index.php?page=70 target=_blank><img src=geotagged/thumb/GOPR2321.JPG width=200></a><br>Sežana<br> Slovenia<br> si,cycloscope,5,45.7085,13.8718
geotagged/GOPR2331.JPG,2,<a href=gallery/index.php?page=71 target=_blank><img src=geotagged/thumb/GOPR2331.JPG width=200></a><br>Sežana<br> Slovenia<br> si,cycloscope,5,45.7132,13.9043
geotagged/GOPR2341.JPG,2,<a href=gallery/index.php?page=71 target=_blank><img src=geotagged/thumb/GOPR2341.JPG width=200></a><br>Sežana<br> Slovenia<br> si,cycloscope,5,45.7048,13.9162
geotagged/GOPR2351.JPG,2,<a href=gallery/index.php?page=71 target=_blank><img src=geotagged/thumb/GOPR2351.JPG width=200></a><br>Sežana<br> Slovenia<br> si,cycloscope,5,45.6948,13.9508
geotagged/GOPR2361.JPG,2,<a href=gallery/index.php?page=72 target=_blank><img src=geotagged/thumb/GOPR2361.JPG width=200></a><br>Sežana<br> Slovenia<br> si,cycloscope,5,45.6826,13.9695
geotagged/GOPR2371.JPG,2,<a href=gallery/index.php?page=72 target=_blank><img src=geotagged/thumb/GOPR2371.JPG width=200></a><br>Divača<br> Slovenia<br> si,cycloscope,5,45.6635,13.9739
geotagged/GOPR2381.JPG,2,<a href=gallery/index.php?page=72 target=_blank><img src=geotagged/thumb/GOPR2381.JPG width=200></a><br>Divača<br> Slovenia<br> si,cycloscope,5,45.65,13.9666
geotagged/GOPR2391.JPG,2,<a href=gallery/index.php?page=73 target=_blank><img src=geotagged/thumb/GOPR2391.JPG width=200></a><br>Divača<br> Slovenia<br> si,cycloscope,5,45.65,13.9666
geotagged/GOPR2401.JPG,2,<a href=gallery/index.php?page=73 target=_blank><img src=geotagged/thumb/GOPR2401.JPG width=200></a><br>Divača<br> Slovenia<br> si,cycloscope,5,45.65,13.9666
geotagged/GOPR2411.JPG,2,<a href=gallery/index.php?page=73 target=_blank><img src=geotagged/thumb/GOPR2411.JPG width=200></a><br>Divača<br> Slovenia<br> si,cycloscope,5,45.6416,13.9619
geotagged/GOPR2421.JPG,2,<a href=gallery/index.php?page=74 target=_blank><img src=geotagged/thumb/GOPR2421.JPG width=200></a><br>Hrpelje - Kozina<br> Slovenia<br> si,cycloscope,5,45.6205,13.9498
geotagged/GOPR2431.JPG,2,<a href=gallery/index.php?page=74 target=_blank><img src=geotagged/thumb/GOPR2431.JPG width=200></a><br>Hrpelje - Kozina<br> Slovenia<br> si,cycloscope,5,45.6042,13.9513
geotagged/GOPR2441.JPG,2,<a href=gallery/index.php?page=74 target=_blank><img src=geotagged/thumb/GOPR2441.JPG width=200></a><br>Hrpelje - Kozina<br> Slovenia<br> si,cycloscope,5,45.589,13.9811
geotagged/GOPR2451.JPG,2,<a href=gallery/index.php?page=75 target=_blank><img src=geotagged/thumb/GOPR2451.JPG width=200></a><br>Hrpelje - Kozina<br> Slovenia<br> si,cycloscope,5,45.5768,14.0033
geotagged/GOPR2461.JPG,2,<a href=gallery/index.php?page=75 target=_blank><img src=geotagged/thumb/GOPR2461.JPG width=200></a><br>Hrpelje - Kozina<br> Slovenia<br> si,cycloscope,5,45.5633,14.03
geotagged/GOPR2471.JPG,2,<a href=gallery/index.php?page=75 target=_blank><img src=geotagged/thumb/GOPR2471.JPG width=200></a><br>Hrpelje - Kozina<br> Slovenia<br> si,cycloscope,5,45.5533,14.0515
geotagged/GOPR2481.JPG,2,<a href=gallery/index.php?page=76 target=_blank><img src=geotagged/thumb/GOPR2481.JPG width=200></a><br>Hrpelje - Kozina<br> Slovenia<br> si,cycloscope,5,45.5434,14.0806
geotagged/GOPR2491.JPG,2,<a href=gallery/index.php?page=76 target=_blank><img src=geotagged/thumb/GOPR2491.JPG width=200></a><br>Hrpelje - Kozina<br> Slovenia<br> si,cycloscope,5,45.5306,14.1254
geotagged/GOPR2501.JPG,2,<a href=gallery/index.php?page=76 target=_blank><img src=geotagged/thumb/GOPR2501.JPG width=200></a><br>Hrpelje - Kozina<br> Slovenia<br> si,cycloscope,5,45.5194,14.1516
geotagged/GOPR2511.JPG,2,<a href=gallery/index.php?page=77 target=_blank><img src=geotagged/thumb/GOPR2511.JPG width=200></a><br>Hrpelje - Kozina<br> Slovenia<br> si,cycloscope,5,45.5053,14.1684
geotagged/GOPR2521.JPG,2,<a href=gallery/index.php?page=77 target=_blank><img src=geotagged/thumb/GOPR2521.JPG width=200></a><br>Hrpelje - Kozina<br> Slovenia<br> si,cycloscope,5,45.4946,14.1968
geotagged/GOPR2531.JPG,2,<a href=gallery/index.php?page=77 target=_blank><img src=geotagged/thumb/GOPR2531.JPG width=200></a><br>Šapjane<br> Primorje-Gorski Kotar<br> Croatia<br> hr,cycloscope,5,45.482,14.2445
geotagged/GOPR2541.JPG,2,<a href=gallery/index.php?page=78 target=_blank><img src=geotagged/thumb/GOPR2541.JPG width=200></a><br>Rupa<br> Primorje-Gorski Kotar<br> Croatia<br> hr,cycloscope,5,45.4739,14.275
geotagged/GOPR2551.JPG,2,<a href=gallery/index.php?page=78 target=_blank><img src=geotagged/thumb/GOPR2551.JPG width=200></a><br>Lipa<br> Primorje-Gorski Kotar<br> Croatia<br> hr,cycloscope,5,45.4712,14.2955
geotagged/GOPR2561.JPG,2,<a href=gallery/index.php?page=78 target=_blank><img src=geotagged/thumb/GOPR2561.JPG width=200></a><br>Škalnica<br> Primorje-Gorski Kotar<br> Croatia<br> hr,cycloscope,5,45.4584,14.3118
geotagged/GOPR2571.JPG,2,<a href=gallery/index.php?page=79 target=_blank><img src=geotagged/thumb/GOPR2571.JPG width=200></a><br>Škalnica<br> Primorje-Gorski Kotar<br> Croatia<br> hr,cycloscope,5,45.4451,14.3366
geotagged/GOPR2581.JPG,2,<a href=gallery/index.php?page=79 target=_blank><img src=geotagged/thumb/GOPR2581.JPG width=200></a><br>Klana<br> Primorje-Gorski Kotar<br> Croatia<br> hr,cycloscope,5,45.4339,14.3673
geotagged/GOPR2591.JPG,2,<a href=gallery/index.php?page=79 target=_blank><img src=geotagged/thumb/GOPR2591.JPG width=200></a><br>Pehlin<br> Marčelji<br> Primorje-Gorski Kotar<br> Croatia<br> hr,cycloscope,5,45.399,14.3944
geotagged/GOPR2601.JPG,2,<a href=gallery/index.php?page=80 target=_blank><img src=geotagged/thumb/GOPR2601.JPG width=200></a><br>Pehlin<br> Trnovica<br> Primorje-Gorski Kotar<br> Croatia<br> hr,cycloscope,5,45.3878,14.4171
geotagged/GOPR2611.JPG,2,<a href=gallery/index.php?page=80 target=_blank><img src=geotagged/thumb/GOPR2611.JPG width=200></a><br>Drenova<br> Jelenje<br> Primorje-Gorski Kotar<br> Croatia<br> hr,cycloscope,5,45.393,14.4297
geotagged/GOPR2621.JPG,2,<a href=gallery/index.php?page=80 target=_blank><img src=geotagged/thumb/GOPR2621.JPG width=200></a><br>Drenova<br> Jelenje<br> Primorje-Gorski Kotar<br> Croatia<br> hr,cycloscope,5,45.3862,14.4527
geotagged/GOPR2631.JPG,2,<a href=gallery/index.php?page=81 target=_blank><img src=geotagged/thumb/GOPR2631.JPG width=200></a><br>Svilno<br> Podčudnič<br> Primorje-Gorski Kotar<br> Croatia<br> hr,cycloscope,5,45.3739,14.4739
geotagged/GOPR2641.JPG,2,<a href=gallery/index.php?page=81 target=_blank><img src=geotagged/thumb/GOPR2641.JPG width=200></a><br>Soboli<br> Primorje-Gorski Kotar<br> Croatia<br> hr,cycloscope,5,45.3759,14.5001
geotagged/GOPR2651.JPG,2,<a href=gallery/index.php?page=81 target=_blank><img src=geotagged/thumb/GOPR2651.JPG width=200></a><br>Soboli<br> Primorje-Gorski Kotar<br> Croatia<br> hr,cycloscope,5,45.3752,14.5175
geotagged/GOPR2661.JPG,2,<a href=gallery/index.php?page=82 target=_blank><img src=geotagged/thumb/GOPR2661.JPG width=200></a><br>Rijeka<br> Primorje-Gorski Kotar<br> Croatia<br> hr,cycloscope,5,45.3785,14.5336
geotagged/GOPR2671.JPG,2,<a href=gallery/index.php?page=82 target=_blank><img src=geotagged/thumb/GOPR2671.JPG width=200></a><br>Rijeka<br> Primorje-Gorski Kotar<br> Croatia<br> hr,cycloscope,5,45.382,14.5415
geotagged/GOPR2681.JPG,2,<a href=gallery/index.php?page=82 target=_blank><img src=geotagged/thumb/GOPR2681.JPG width=200></a><br>Rijeka<br> Primorje-Gorski Kotar<br> Croatia<br> hr,cycloscope,5,45.3868,14.5465
geotagged/GOPR2691.JPG,2,<a href=gallery/index.php?page=83 target=_blank><img src=geotagged/thumb/GOPR2691.JPG width=200></a><br>Rijeka<br> Primorje-Gorski Kotar<br> Croatia<br> hr,cycloscope,5,45.3831,14.5667
geotagged/GOPR2701.JPG,2,<a href=gallery/index.php?page=83 target=_blank><img src=geotagged/thumb/GOPR2701.JPG width=200></a><br>Rijeka<br> Primorje-Gorski Kotar<br> Croatia<br> hr,cycloscope,5,45.3731,14.5835
geotagged/GOPR2711.JPG,2,<a href=gallery/index.php?page=83 target=_blank><img src=geotagged/thumb/GOPR2711.JPG width=200></a><br>Rijeka<br> Primorje-Gorski Kotar<br> Croatia<br> hr,cycloscope,5,45.3692,14.6012
geotagged/GOPR2721.JPG,2,<a href=gallery/index.php?page=84 target=_blank><img src=geotagged/thumb/GOPR2721.JPG width=200></a><br>Rijeka<br> Primorje-Gorski Kotar<br> Croatia<br> hr,cycloscope,5,45.3672,14.6167
geotagged/GOPR2731.JPG,2,<a href=gallery/index.php?page=84 target=_blank><img src=geotagged/thumb/GOPR2731.JPG width=200></a><br>Mrzla Vodica<br> Primorje-Gorski Kotar<br> Croatia<br> hr,cycloscope,5,45.3494,14.6543
geotagged/GOPR2741.JPG,2,<a href=gallery/index.php?page=84 target=_blank><img src=geotagged/thumb/GOPR2741.JPG width=200></a><br>Mrzla Vodica<br> Primorje-Gorski Kotar<br> Croatia<br> hr,cycloscope,5,45.3412,14.6839
geotagged/GOPR2751.JPG,2,<a href=gallery/index.php?page=85 target=_blank><img src=geotagged/thumb/GOPR2751.JPG width=200></a><br>Cycloscope project - http://itcycloscope.weebly.com/,cycloscope,5,42.9426,42.1716
geotagged/GOPR2761.JPG,2,<a href=gallery/index.php?page=85 target=_blank><img src=geotagged/thumb/GOPR2761.JPG width=200></a><br>Cycloscope project - http://itcycloscope.weebly.com/,cycloscope,5,42.935,42.1366
geotagged/GOPR2771.JPG,2,<a href=gallery/index.php?page=85 target=_blank><img src=geotagged/thumb/GOPR2771.JPG width=200></a><br>Cycloscope project - http://itcycloscope.weebly.com/,cycloscope,5,42.9319,42.1082
geotagged/GOPR2781.JPG,2,<a href=gallery/index.php?page=86 target=_blank><img src=geotagged/thumb/GOPR2781.JPG width=200></a><br>Cycloscope project - http://itcycloscope.weebly.com/,cycloscope,5,42.9202,42.0821
geotagged/GOPR2801.JPG,2,<a href=gallery/index.php?page=86 target=_blank><img src=geotagged/thumb/GOPR2801.JPG width=200></a><br>Cycloscope project - http://itcycloscope.weebly.com/,cycloscope,5,42.8982,42.047
geotagged/GOPR2811.JPG,2,<a href=gallery/index.php?page=87 target=_blank><img src=geotagged/thumb/GOPR2811.JPG width=200></a><br>Cycloscope project - http://itcycloscope.weebly.com/,cycloscope,5,42.8791,42.0332
geotagged/GOPR2821.JPG,2,<a href=gallery/index.php?page=87 target=_blank><img src=geotagged/thumb/GOPR2821.JPG width=200></a><br>Cycloscope project - http://itcycloscope.weebly.com/,cycloscope,5,42.8673,42.0325
geotagged/GOPR2831.JPG,2,<a href=gallery/index.php?page=87 target=_blank><img src=geotagged/thumb/GOPR2831.JPG width=200></a><br>Cycloscope project - http://itcycloscope.weebly.com/,cycloscope,5,42.8488,42.0211
geotagged/GOPR2841.JPG,2,<a href=gallery/index.php?page=88 target=_blank><img src=geotagged/thumb/GOPR2841.JPG width=200></a><br>Cycloscope project - http://itcycloscope.weebly.com/,cycloscope,5,42.8287,42.0233
geotagged/GOPR2851.JPG,2,<a href=gallery/index.php?page=88 target=_blank><img src=geotagged/thumb/GOPR2851.JPG width=200></a><br>Cycloscope project - http://itcycloscope.weebly.com/,cycloscope,5,42.8123,42.0352
geotagged/GOPR2861.JPG,2,<a href=gallery/index.php?page=88 target=_blank><img src=geotagged/thumb/GOPR2861.JPG width=200></a><br>Cycloscope project - http://itcycloscope.weebly.com/,cycloscope,5,42.7964,42.0421
geotagged/GOPR2871.JPG,2,<a href=gallery/index.php?page=89 target=_blank><img src=geotagged/thumb/GOPR2871.JPG width=200></a><br>Cycloscope project - http://itcycloscope.weebly.com/,cycloscope,5,42.7882,42.0541
geotagged/GOPR2881.JPG,2,<a href=gallery/index.php?page=89 target=_blank><img src=geotagged/thumb/GOPR2881.JPG width=200></a><br>Cycloscope project - http://itcycloscope.weebly.com/,cycloscope,5,42.7578,42.0451
geotagged/GOPR2891.JPG,2,<a href=gallery/index.php?page=89 target=_blank><img src=geotagged/thumb/GOPR2891.JPG width=200></a><br>Cycloscope project - http://itcycloscope.weebly.com/,cycloscope,5,42.7253,42.041
geotagged/GOPR2901.JPG,2,<a href=gallery/index.php?page=90 target=_blank><img src=geotagged/thumb/GOPR2901.JPG width=200></a><br>Cycloscope project - http://itcycloscope.weebly.com/,cycloscope,5,42.7127,42.0541
geotagged/GOPR2911.JPG,2,<a href=gallery/index.php?page=90 target=_blank><img src=geotagged/thumb/GOPR2911.JPG width=200></a><br>Cycloscope project - http://itcycloscope.weebly.com/,cycloscope,5,42.6934,42.0568
geotagged/GOPR2921.JPG,2,<a href=gallery/index.php?page=90 target=_blank><img src=geotagged/thumb/GOPR2921.JPG width=200></a><br>Cycloscope project - http://itcycloscope.weebly.com/,cycloscope,5,42.6874,42.0357
geotagged/GOPR2931.JPG,2,<a href=gallery/index.php?page=91 target=_blank><img src=geotagged/thumb/GOPR2931.JPG width=200></a><br>Cycloscope project - http://itcycloscope.weebly.com/,cycloscope,5,42.6614,42.0089
geotagged/GOPR2941.JPG,2,<a href=gallery/index.php?page=91 target=_blank><img src=geotagged/thumb/GOPR2941.JPG width=200></a><br>Cycloscope project - http://itcycloscope.weebly.com/,cycloscope,5,42.6511,42.0098
geotagged/GOPR2951.JPG,2,<a href=gallery/index.php?page=91 target=_blank><img src=geotagged/thumb/GOPR2951.JPG width=200></a><br>Cycloscope project - http://itcycloscope.weebly.com/,cycloscope,5,42.632,42.0235
geotagged/GOPR2961.JPG,2,<a href=gallery/index.php?page=92 target=_blank><img src=geotagged/thumb/GOPR2961.JPG width=200></a><br>Cycloscope project - http://itcycloscope.weebly.com/,cycloscope,5,42.6125,42.0639
geotagged/GOPR2971.JPG,2,<a href=gallery/index.php?page=92 target=_blank><img src=geotagged/thumb/GOPR2971.JPG width=200></a><br>Cycloscope project - http://itcycloscope.weebly.com/,cycloscope,5,42.6071,42.0786
geotagged/GOPR2981.JPG,2,<a href=gallery/index.php?page=92 target=_blank><img src=geotagged/thumb/GOPR2981.JPG width=200></a><br>Cycloscope project - http://itcycloscope.weebly.com/,cycloscope,5,42.6063,42.0954
geotagged/GOPR2991.JPG,2,<a href=gallery/index.php?page=93 target=_blank><img src=geotagged/thumb/GOPR2991.JPG width=200></a><br>Cycloscope project - http://itcycloscope.weebly.com/,cycloscope,5,42.5906,42.0874
geotagged/GOPR3001.JPG,2,<a href=gallery/index.php?page=93 target=_blank><img src=geotagged/thumb/GOPR3001.JPG width=200></a><br>Cycloscope project - http://itcycloscope.weebly.com/,cycloscope,5,42.5689,42.0876
geotagged/GOPR3011.JPG,2,<a href=gallery/index.php?page=93 target=_blank><img src=geotagged/thumb/GOPR3011.JPG width=200></a><br>Cycloscope project - http://itcycloscope.weebly.com/,cycloscope,5,42.5533,42.1023
geotagged/GOPR3021.JPG,2,<a href=gallery/index.php?page=94 target=_blank><img src=geotagged/thumb/GOPR3021.JPG width=200></a><br>Cycloscope project - http://itcycloscope.weebly.com/,cycloscope,5,42.5407,42.1134
geotagged/GOPR3031.JPG,2,<a href=gallery/index.php?page=94 target=_blank><img src=geotagged/thumb/GOPR3031.JPG width=200></a><br>Cycloscope project - http://itcycloscope.weebly.com/,cycloscope,5,42.5278,42.1205
geotagged/GOPR3041.JPG,2,<a href=gallery/index.php?page=94 target=_blank><img src=geotagged/thumb/GOPR3041.JPG width=200></a><br>Cycloscope project - http://itcycloscope.weebly.com/,cycloscope,5,42.5199,42.1204
geotagged/GOPR3051.JPG,2,<a href=gallery/index.php?page=95 target=_blank><img src=geotagged/thumb/GOPR3051.JPG width=200></a><br>Cycloscope project - http://itcycloscope.weebly.com/,cycloscope,5,42.4994,42.1162
geotagged/GOPR3061.JPG,2,<a href=gallery/index.php?page=95 target=_blank><img src=geotagged/thumb/GOPR3061.JPG width=200></a><br>Cycloscope project - http://itcycloscope.weebly.com/,cycloscope,5,42.4745,42.1056
geotagged/GOPR3071.JPG,2,<a href=gallery/index.php?page=95 target=_blank><img src=geotagged/thumb/GOPR3071.JPG width=200></a><br>Cycloscope project - http://itcycloscope.weebly.com/,cycloscope,5,42.4745,42.1056
geotagged/GOPR3081.JPG,2,<a href=gallery/index.php?page=96 target=_blank><img src=geotagged/thumb/GOPR3081.JPG width=200></a><br>Cycloscope project - http://itcycloscope.weebly.com/,cycloscope,5,42.4657,42.1107
geotagged/GOPR3091.JPG,2,<a href=gallery/index.php?page=96 target=_blank><img src=geotagged/thumb/GOPR3091.JPG width=200></a><br>Cycloscope project - http://itcycloscope.weebly.com/,cycloscope,5,42.4355,42.0932
geotagged/GOPR3101.JPG,2,<a href=gallery/index.php?page=96 target=_blank><img src=geotagged/thumb/GOPR3101.JPG width=200></a><br>Cycloscope project - http://itcycloscope.weebly.com/,cycloscope,5,42.4118,42.0896
geotagged/GOPR3111.JPG,2,<a href=gallery/index.php?page=97 target=_blank><img src=geotagged/thumb/GOPR3111.JPG width=200></a><br>Blatnica<br> Karlovac<br> Croatia<br> hr,cycloscope,5,45.5192,15.7468
geotagged/GOPR3121.JPG,2,<a href=gallery/index.php?page=97 target=_blank><img src=geotagged/thumb/GOPR3121.JPG width=200></a><br>Donja Kupčina<br> Zagreb County<br> Croatia<br> hr,cycloscope,5,45.5393,15.7969
geotagged/GOPR3131.JPG,2,<a href=gallery/index.php?page=97 target=_blank><img src=geotagged/thumb/GOPR3131.JPG width=200></a><br>Donja Kupčina<br> Zagreb County<br> Croatia<br> hr,cycloscope,5,45.5626,15.8244
geotagged/GOPR3141.JPG,2,<a href=gallery/index.php?page=98 target=_blank><img src=geotagged/thumb/GOPR3141.JPG width=200></a><br>Pisarovina<br> Zagreb County<br> Croatia<br> hr,cycloscope,5,45.5812,15.859
geotagged/GOPR3151.JPG,2,<a href=gallery/index.php?page=98 target=_blank><img src=geotagged/thumb/GOPR3151.JPG width=200></a><br>Zagreb County<br> Croatia<br> hr,cycloscope,5,45.5449,15.8706
geotagged/GOPR3161.JPG,2,<a href=gallery/index.php?page=98 target=_blank><img src=geotagged/thumb/GOPR3161.JPG width=200></a><br>Zagreb County<br> Croatia<br> hr,cycloscope,5,45.534,15.885
geotagged/GOPR3171.JPG,2,<a href=gallery/index.php?page=99 target=_blank><img src=geotagged/thumb/GOPR3171.JPG width=200></a><br>Cerje Pokupsko<br> Zagreb County<br> Croatia<br> hr,cycloscope,5,45.5374,15.9281
geotagged/GOPR3181.JPG,2,<a href=gallery/index.php?page=99 target=_blank><img src=geotagged/thumb/GOPR3181.JPG width=200></a><br>Cerje Pokupsko<br> Zagreb County<br> Croatia<br> hr,cycloscope,5,45.5047,15.9548
geotagged/GOPR3191.JPG,2,<a href=gallery/index.php?page=99 target=_blank><img src=geotagged/thumb/GOPR3191.JPG width=200></a><br>Pokupsko<br> Zagreb County<br> Croatia<br> hr,cycloscope,5,45.4854,15.9919
geotagged/GOPR3201.JPG,2,<a href=gallery/index.php?page=100 target=_blank><img src=geotagged/thumb/GOPR3201.JPG width=200></a><br>Zagreb County<br> Croatia<br> hr,cycloscope,5,45.4863,16.0415
geotagged/GOPR3211.JPG,2,<a href=gallery/index.php?page=100 target=_blank><img src=geotagged/thumb/GOPR3211.JPG width=200></a><br>Sisak-Moslavina<br> Croatia<br> hr,cycloscope,5,45.4821,16.0722
geotagged/GOPR3221.JPG,2,<a href=gallery/index.php?page=100 target=_blank><img src=geotagged/thumb/GOPR3221.JPG width=200></a><br>Stari Brod<br> Sisak-Moslavina<br> Croatia<br> hr,cycloscope,5,45.4922,16.1217
geotagged/GOPR3231.JPG,2,<a href=gallery/index.php?page=101 target=_blank><img src=geotagged/thumb/GOPR3231.JPG width=200></a><br>Stari Brod<br> Sisak-Moslavina<br> Croatia<br> hr,cycloscope,5,45.4971,16.1836
geotagged/GOPR3241.JPG,2,<a href=gallery/index.php?page=101 target=_blank><img src=geotagged/thumb/GOPR3241.JPG width=200></a><br>Stari Brod<br> Sisak-Moslavina<br> Croatia<br> hr,cycloscope,5,45.5153,16.2461
geotagged/GOPR3251.JPG,2,<a href=gallery/index.php?page=101 target=_blank><img src=geotagged/thumb/GOPR3251.JPG width=200></a><br>Sela<br> Sisak-Moslavina<br> Croatia<br> hr,cycloscope,5,45.5064,16.3133
geotagged/GOPR3261.JPG,2,<a href=gallery/index.php?page=102 target=_blank><img src=geotagged/thumb/GOPR3261.JPG width=200></a><br>Centar<br> Sisak<br> Sisak-Moslavina<br> Croatia<br> hr,cycloscope,5,45.4929,16.3764
geotagged/GOPR3271.JPG,2,<a href=gallery/index.php?page=102 target=_blank><img src=geotagged/thumb/GOPR3271.JPG width=200></a><br>Centar<br> Sisak<br> Sisak-Moslavina<br> Croatia<br> hr,cycloscope,5,45.4873,16.3726
geotagged/GOPR3290.JPG,2,<a href=gallery/index.php?page=102 target=_blank><img src=geotagged/thumb/GOPR3290.JPG width=200></a><br>Vrbina<br> Sisak<br> Sisak-Moslavina<br> Croatia<br> hr,cycloscope,5,45.4808,16.3775
geotagged/GOPR3300.JPG,2,<a href=gallery/index.php?page=103 target=_blank><img src=geotagged/thumb/GOPR3300.JPG width=200></a><br>Galdovo<br> Budaševo<br> Sisak-Moslavina<br> Croatia<br> hr,cycloscope,5,45.4904,16.4458
geotagged/GOPR3310.JPG,2,<a href=gallery/index.php?page=103 target=_blank><img src=geotagged/thumb/GOPR3310.JPG width=200></a><br>Stružec<br> Sisak-Moslavina<br> Croatia<br> hr,cycloscope,5,45.4984,16.5119
geotagged/GOPR3320.JPG,2,<a href=gallery/index.php?page=103 target=_blank><img src=geotagged/thumb/GOPR3320.JPG width=200></a><br>Stružec<br> Sisak-Moslavina<br> Croatia<br> hr,cycloscope,5,45.5259,16.5391
geotagged/GOPR3330.JPG,2,<a href=gallery/index.php?page=104 target=_blank><img src=geotagged/thumb/GOPR3330.JPG width=200></a><br>Osekovo<br> Sisak-Moslavina<br> Croatia<br> hr,cycloscope,5,45.5199,16.5883
geotagged/GOPR3340.JPG,2,<a href=gallery/index.php?page=104 target=_blank><img src=geotagged/thumb/GOPR3340.JPG width=200></a><br>Donja Gračenica<br> Sisak-Moslavina<br> Croatia<br> hr,cycloscope,5,45.5101,16.6559
geotagged/GOPR3350.JPG,2,<a href=gallery/index.php?page=104 target=_blank><img src=geotagged/thumb/GOPR3350.JPG width=200></a><br>Repušnica<br> Sisak-Moslavina<br> Croatia<br> hr,cycloscope,5,45.5024,16.7136
geotagged/GOPR3360.JPG,2,<a href=gallery/index.php?page=105 target=_blank><img src=geotagged/thumb/GOPR3360.JPG width=200></a><br>Husain<br> Sisak-Moslavina<br> Croatia<br> hr,cycloscope,5,45.4767,16.7831
geotagged/GOPR3370.JPG,2,<a href=gallery/index.php?page=105 target=_blank><img src=geotagged/thumb/GOPR3370.JPG width=200></a><br>Zbjegovača<br> Sisak-Moslavina<br> Croatia<br> hr,cycloscope,5,45.4508,16.8713
geotagged/GOPR3380.JPG,2,<a href=gallery/index.php?page=105 target=_blank><img src=geotagged/thumb/GOPR3380.JPG width=200></a><br>Lipovljani<br> Sisak-Moslavina<br> Croatia<br> hr,cycloscope,5,45.4027,16.9052
geotagged/GOPR3390.JPG,2,<a href=gallery/index.php?page=106 target=_blank><img src=geotagged/thumb/GOPR3390.JPG width=200></a><br>Nova Subocka<br> Sisak-Moslavina<br> Croatia<br> hr,cycloscope,5,45.3666,16.9331
geotagged/GOPR3400.JPG,2,<a href=gallery/index.php?page=106 target=_blank><img src=geotagged/thumb/GOPR3400.JPG width=200></a><br>Roždanik<br> Sisak-Moslavina<br> Croatia<br> hr,cycloscope,5,45.3281,16.9946
geotagged/GOPR3410.JPG,2,<a href=gallery/index.php?page=106 target=_blank><img src=geotagged/thumb/GOPR3410.JPG width=200></a><br>Roždanik<br> Sisak-Moslavina<br> Croatia<br> hr,cycloscope,5,45.3185,17.0638
geotagged/GOPR3421.JPG,2,<a href=gallery/index.php?page=107 target=_blank><img src=geotagged/thumb/GOPR3421.JPG width=200></a><br>Roždanik<br> Sisak-Moslavina<br> Croatia<br> hr,cycloscope,5,45.3036,17.1114
geotagged/GOPR3431.JPG,2,<a href=gallery/index.php?page=107 target=_blank><img src=geotagged/thumb/GOPR3431.JPG width=200></a><br>Roždanik<br> Sisak-Moslavina<br> Croatia<br> hr,cycloscope,5,45.266,17.1828
geotagged/GOPR3441.JPG,2,<a href=gallery/index.php?page=107 target=_blank><img src=geotagged/thumb/GOPR3441.JPG width=200></a><br>Medari<br> Brod-Posavina<br> Croatia<br> hr,cycloscope,5,45.2619,17.2457
geotagged/GOPR3451.JPG,2,<a href=gallery/index.php?page=108 target=_blank><img src=geotagged/thumb/GOPR3451.JPG width=200></a><br>Medari<br> Brod-Posavina<br> Croatia<br> hr,cycloscope,5,45.2643,17.315
geotagged/GOPR3461.JPG,2,<a href=gallery/index.php?page=108 target=_blank><img src=geotagged/thumb/GOPR3461.JPG width=200></a><br>Medari<br> Brod-Posavina<br> Croatia<br> hr,cycloscope,5,45.259,17.3911
geotagged/GOPR3471.JPG,2,<a href=gallery/index.php?page=108 target=_blank><img src=geotagged/thumb/GOPR3471.JPG width=200></a><br>Godinjak<br> Brod-Posavina<br> Croatia<br> hr,cycloscope,5,45.241,17.4827
geotagged/GOPR3481.JPG,2,<a href=gallery/index.php?page=109 target=_blank><img src=geotagged/thumb/GOPR3481.JPG width=200></a><br>Godinjak<br> Brod-Posavina<br> Croatia<br> hr,cycloscope,5,45.2182,17.5716
geotagged/GOPR3491.JPG,2,<a href=gallery/index.php?page=109 target=_blank><img src=geotagged/thumb/GOPR3491.JPG width=200></a><br>Bili Brig<br> Brod-Posavina<br> Croatia<br> hr,cycloscope,5,45.1931,17.6539
geotagged/GOPR3501.JPG,2,<a href=gallery/index.php?page=109 target=_blank><img src=geotagged/thumb/GOPR3501.JPG width=200></a><br>Radovanje<br> Brod-Posavina<br> Croatia<br> hr,cycloscope,5,45.1692,17.7091
geotagged/GOPR3514.JPG,2,<a href=gallery/index.php?page=110 target=_blank><img src=geotagged/thumb/GOPR3514.JPG width=200></a><br>Radovanje<br> Brod-Posavina<br> Croatia<br> hr,cycloscope,5,45.1613,17.7638
geotagged/GOPR3524.JPG,2,<a href=gallery/index.php?page=110 target=_blank><img src=geotagged/thumb/GOPR3524.JPG width=200></a><br>Gornji Andrijevci<br> Brod-Posavina<br> Croatia<br> hr,cycloscope,5,45.1785,17.8657
geotagged/GOPR3534.JPG,2,<a href=gallery/index.php?page=110 target=_blank><img src=geotagged/thumb/GOPR3534.JPG width=200></a><br>Brodski Varoš<br> Gromačnik<br> Brod-Posavina<br> Croatia<br> hr,cycloscope,5,45.1808,17.9379
geotagged/GOPR3544.JPG,2,<a href=gallery/index.php?page=111 target=_blank><img src=geotagged/thumb/GOPR3544.JPG width=200></a><br>Brodsko Vinogorje<br> Slavonski Brod<br> Brod-Posavina<br> Croatia<br> hr,cycloscope,5,45.1842,18.006
geotagged/GOPR3554.JPG,2,<a href=gallery/index.php?page=111 target=_blank><img src=geotagged/thumb/GOPR3554.JPG width=200></a><br>Slavonija I<br> Slavonski Brod<br> Brod-Posavina<br> Croatia<br> hr,cycloscope,5,45.1623,18.0165
geotagged/GOPR3564.JPG,2,<a href=gallery/index.php?page=111 target=_blank><img src=geotagged/thumb/GOPR3564.JPG width=200></a><br>Mahala<br> Bosanski Brod<br> Opština Bosanski Brod<br> Bosnia and Herzegovina<br> ba,cycloscope,5,45.1476,18.0026
geotagged/GOPR3574.JPG,2,<a href=gallery/index.php?page=112 target=_blank><img src=geotagged/thumb/GOPR3574.JPG width=200></a><br>Brodsko Polje II<br> Opština Bosanski Brod<br> Bosnia and Herzegovina<br> ba,cycloscope,5,45.1177,18.0519
geotagged/GOPR3584.JPG,2,<a href=gallery/index.php?page=112 target=_blank><img src=geotagged/thumb/GOPR3584.JPG width=200></a><br>Opština Bosanski Brod<br> Bosnia and Herzegovina<br> ba,cycloscope,5,45.0809,18.1079
geotagged/GOPR3594.JPG,2,<a href=gallery/index.php?page=112 target=_blank><img src=geotagged/thumb/GOPR3594.JPG width=200></a><br>Mala Brusnica<br> Odzak municipality<br> Bosnia and Herzegovina<br> ba,cycloscope,5,45.0748,18.1861
geotagged/GOPR3604.JPG,2,<a href=gallery/index.php?page=113 target=_blank><img src=geotagged/thumb/GOPR3604.JPG width=200></a><br>Mala Brusnica<br> Odzak municipality<br> Bosnia and Herzegovina<br> ba,cycloscope,5,45.1053,18.2595
geotagged/GOPR3614.JPG,2,<a href=gallery/index.php?page=113 target=_blank><img src=geotagged/thumb/GOPR3614.JPG width=200></a><br>Potočani<br> Odzak municipality<br> Bosnia and Herzegovina<br> ba,cycloscope,5,45.0548,18.2709
geotagged/GOPR3624.JPG,2,<a href=gallery/index.php?page=113 target=_blank><img src=geotagged/thumb/GOPR3624.JPG width=200></a><br>Odžak<br> Odzak municipality<br> Bosnia and Herzegovina<br> ba,cycloscope,5,45.0179,18.3297
geotagged/GOPR3638.JPG,2,<a href=gallery/index.php?page=114 target=_blank><img src=geotagged/thumb/GOPR3638.JPG width=200></a><br>Cycloscope project - http://itcycloscope.weebly.com/,cycloscope,5,41.7551,44.7786
geotagged/GOPR3648.JPG,2,<a href=gallery/index.php?page=114 target=_blank><img src=geotagged/thumb/GOPR3648.JPG width=200></a><br>Cycloscope project - http://itcycloscope.weebly.com/,cycloscope,5,41.7211,44.7835
geotagged/GOPR3658.JPG,2,<a href=gallery/index.php?page=114 target=_blank><img src=geotagged/thumb/GOPR3658.JPG width=200></a><br>Cycloscope project - http://itcycloscope.weebly.com/,cycloscope,5,41.6978,44.8064
geotagged/GOPR3668.JPG,2,<a href=gallery/index.php?page=115 target=_blank><img src=geotagged/thumb/GOPR3668.JPG width=200></a><br>Cycloscope project - http://itcycloscope.weebly.com/,cycloscope,5,41.6873,44.8191
geotagged/GOPR3673.JPG,2,<a href=gallery/index.php?page=115 target=_blank><img src=geotagged/thumb/GOPR3673.JPG width=200></a><br>Cycloscope project - http://itcycloscope.weebly.com/,cycloscope,5,41.6906,44.8109
geotagged/GOPR3678.JPG,2,<a href=gallery/index.php?page=115 target=_blank><img src=geotagged/thumb/GOPR3678.JPG width=200></a><br>Cycloscope project - http://itcycloscope.weebly.com/,cycloscope,5,41.6907,44.8137
geotagged/GOPR3683.JPG,2,<a href=gallery/index.php?page=116 target=_blank><img src=geotagged/thumb/GOPR3683.JPG width=200></a><br>Cycloscope project - http://itcycloscope.weebly.com/,cycloscope,5,41.6913,44.8106
geotagged/GOPR3688.JPG,2,<a href=gallery/index.php?page=116 target=_blank><img src=geotagged/thumb/GOPR3688.JPG width=200></a><br>Cycloscope project - http://itcycloscope.weebly.com/,cycloscope,5,41.6925,44.8049
geotagged/GOPR3693.JPG,2,<a href=gallery/index.php?page=116 target=_blank><img src=geotagged/thumb/GOPR3693.JPG width=200></a><br>Kerep<br> Gradacac municipality<br> Bosnia and Herzegovina<br> ba,cycloscope,5,44.8515,18.4361
geotagged/GOPR3698.JPG,2,<a href=gallery/index.php?page=117 target=_blank><img src=geotagged/thumb/GOPR3698.JPG width=200></a><br>Cycloscope project - http://itcycloscope.weebly.com/,cycloscope,5,41.6954,44.8005
geotagged/GOPR3703.JPG,2,<a href=gallery/index.php?page=117 target=_blank><img src=geotagged/thumb/GOPR3703.JPG width=200></a><br>Cycloscope project - http://itcycloscope.weebly.com/,cycloscope,5,41.6919,44.7996
geotagged/GOPR3708.JPG,2,<a href=gallery/index.php?page=117 target=_blank><img src=geotagged/thumb/GOPR3708.JPG width=200></a><br>Cerik<br> Bosnia and Herzegovina<br> ba,cycloscope,5,44.7978,18.5225
geotagged/GOPR3713.JPG,2,<a href=gallery/index.php?page=118 target=_blank><img src=geotagged/thumb/GOPR3713.JPG width=200></a><br>Gajevi<br> Bosnia and Herzegovina<br> ba,cycloscope,5,44.8132,18.5593
geotagged/GOPR3718.JPG,2,<a href=gallery/index.php?page=118 target=_blank><img src=geotagged/thumb/GOPR3718.JPG width=200></a><br>Gajevi<br> Bosnia and Herzegovina<br> ba,cycloscope,5,44.82,18.6315
geotagged/GOPR3723.JPG,2,<a href=gallery/index.php?page=118 target=_blank><img src=geotagged/thumb/GOPR3723.JPG width=200></a><br>Gajevi<br> Bosnia and Herzegovina<br> ba,cycloscope,5,44.8247,18.6649
geotagged/GOPR3728.JPG,2,<a href=gallery/index.php?page=119 target=_blank><img src=geotagged/thumb/GOPR3728.JPG width=200></a><br><br> Bosnia and Herzegovina<br> ba,cycloscope,5,44.8284,18.7235
geotagged/GOPR3733.JPG,2,<a href=gallery/index.php?page=119 target=_blank><img src=geotagged/thumb/GOPR3733.JPG width=200></a><br><br> Bosnia and Herzegovina<br> ba,cycloscope,5,44.8015,18.7075
geotagged/GOPR3738.JPG,2,<a href=gallery/index.php?page=119 target=_blank><img src=geotagged/thumb/GOPR3738.JPG width=200></a><br>Čande<br> Bosnia and Herzegovina<br> ba,cycloscope,5,44.7803,18.6909
geotagged/GOPR3743.JPG,2,<a href=gallery/index.php?page=120 target=_blank><img src=geotagged/thumb/GOPR3743.JPG width=200></a><br>Štrepci<br> Bosnia and Herzegovina<br> ba,cycloscope,5,44.7714,18.6976
geotagged/GOPR3750.JPG,2,<a href=gallery/index.php?page=120 target=_blank><img src=geotagged/thumb/GOPR3750.JPG width=200></a><br>Štrepci<br> Bosnia and Herzegovina<br> ba,cycloscope,5,44.763,18.6939
geotagged/GOPR3755.JPG,2,<a href=gallery/index.php?page=120 target=_blank><img src=geotagged/thumb/GOPR3755.JPG width=200></a><br>Gornji Zovik<br> Bosnia and Herzegovina<br> ba,cycloscope,5,44.7542,18.7282
geotagged/GOPR3760.JPG,2,<a href=gallery/index.php?page=121 target=_blank><img src=geotagged/thumb/GOPR3760.JPG width=200></a><br>Vražiči<br> Celic municipality<br> Bosnia and Herzegovina<br> ba,cycloscope,5,44.7405,18.7427
geotagged/GOPR3765.JPG,2,<a href=gallery/index.php?page=121 target=_blank><img src=geotagged/thumb/GOPR3765.JPG width=200></a><br>Brdo<br> Ratkovići<br> Celic municipality<br> Bosnia and Herzegovina<br> ba,cycloscope,5,44.7353,18.7992
geotagged/GOPR3770.JPG,2,<a href=gallery/index.php?page=121 target=_blank><img src=geotagged/thumb/GOPR3770.JPG width=200></a><br>Luka<br> Čelić<br> Celic municipality<br> Bosnia and Herzegovina<br> ba,cycloscope,5,44.7247,18.8309
geotagged/GOPR3775.JPG,2,<a href=gallery/index.php?page=122 target=_blank><img src=geotagged/thumb/GOPR3775.JPG width=200></a><br>Brda<br> Koraj<br> Lopare municipality<br> Bosnia and Herzegovina<br> ba,cycloscope,5,44.7398,18.866
geotagged/GOPR3780.JPG,2,<a href=gallery/index.php?page=122 target=_blank><img src=geotagged/thumb/GOPR3780.JPG width=200></a><br>Brda<br> Koraj<br> Lopare municipality<br> Bosnia and Herzegovina<br> ba,cycloscope,5,44.7328,18.8804
geotagged/GOPR3785.JPG,2,<a href=gallery/index.php?page=122 target=_blank><img src=geotagged/thumb/GOPR3785.JPG width=200></a><br>Kalat<br> Koraj<br> Lopare municipality<br> Bosnia and Herzegovina<br> ba,cycloscope,5,44.7104,18.8804
geotagged/GOPR3790.JPG,2,<a href=gallery/index.php?page=123 target=_blank><img src=geotagged/thumb/GOPR3790.JPG width=200></a><br>Tutnjevac<br> Ugljevik municipality<br> Bosnia and Herzegovina<br> ba,cycloscope,5,44.7086,18.907
geotagged/GOPR3795.JPG,2,<a href=gallery/index.php?page=123 target=_blank><img src=geotagged/thumb/GOPR3795.JPG width=200></a><br>Tutnjevac<br> Ugljevik municipality<br> Bosnia and Herzegovina<br> ba,cycloscope,5,44.7068,18.9488
geotagged/GOPR3800.JPG,2,<a href=gallery/index.php?page=123 target=_blank><img src=geotagged/thumb/GOPR3800.JPG width=200></a><br>Tutnjevac<br> Ugljevik municipality<br> Bosnia and Herzegovina<br> ba,cycloscope,5,44.7073,18.986
geotagged/GOPR3805.JPG,2,<a href=gallery/index.php?page=124 target=_blank><img src=geotagged/thumb/GOPR3805.JPG width=200></a><br>Zagoni<br> City of Bijeljina<br> Bosnia and Herzegovina<br> ba,cycloscope,5,44.6928,19.0296
geotagged/GOPR3810.JPG,2,<a href=gallery/index.php?page=124 target=_blank><img src=geotagged/thumb/GOPR3810.JPG width=200></a><br>Zagoni<br> City of Bijeljina<br> Bosnia and Herzegovina<br> ba,cycloscope,5,44.6892,19.0815
geotagged/GOPR3815.JPG,2,<a href=gallery/index.php?page=124 target=_blank><img src=geotagged/thumb/GOPR3815.JPG width=200></a><br>Zagoni<br> City of Bijeljina<br> Bosnia and Herzegovina<br> ba,cycloscope,5,44.6953,19.129
geotagged/GOPR3820.JPG,2,<a href=gallery/index.php?page=125 target=_blank><img src=geotagged/thumb/GOPR3820.JPG width=200></a><br>Janja<br> City of Bijeljina<br> Bosnia and Herzegovina<br> ba,cycloscope,5,44.6765,19.1698
geotagged/GOPR3825.JPG,2,<a href=gallery/index.php?page=125 target=_blank><img src=geotagged/thumb/GOPR3825.JPG width=200></a><br>Janja<br> City of Bijeljina<br> Bosnia and Herzegovina<br> ba,cycloscope,5,44.6661,19.2122
geotagged/GOPR3835.JPG,2,<a href=gallery/index.php?page=125 target=_blank><img src=geotagged/thumb/GOPR3835.JPG width=200></a><br>Johovac<br> City of Bijeljina<br> Bosnia and Herzegovina<br> ba,cycloscope,5,44.66,19.2486
geotagged/GOPR3840.JPG,2,<a href=gallery/index.php?page=126 target=_blank><img src=geotagged/thumb/GOPR3840.JPG width=200></a><br>Johovac<br> City of Bijeljina<br> Bosnia and Herzegovina<br> ba,cycloscope,5,44.6431,19.2157
geotagged/GOPR3845.JPG,2,<a href=gallery/index.php?page=126 target=_blank><img src=geotagged/thumb/GOPR3845.JPG width=200></a><br>Johovac<br> City of Bijeljina<br> Bosnia and Herzegovina<br> ba,cycloscope,5,44.6191,19.1875
geotagged/GOPR3850.JPG,2,<a href=gallery/index.php?page=126 target=_blank><img src=geotagged/thumb/GOPR3850.JPG width=200></a><br>Šepak G.<br> Zvornik municipality<br> Bosnia and Herzegovina<br> ba,cycloscope,5,44.582,19.175
geotagged/GOPR3855.JPG,2,<a href=gallery/index.php?page=127 target=_blank><img src=geotagged/thumb/GOPR3855.JPG width=200></a><br>Šepak G.<br> Zvornik municipality<br> Bosnia and Herzegovina<br> ba,cycloscope,5,44.5437,19.1803
geotagged/GOPR3860.JPG,2,<a href=gallery/index.php?page=127 target=_blank><img src=geotagged/thumb/GOPR3860.JPG width=200></a><br>Loznica<br> Loznica City<br> Serbia<br> rs,cycloscope,5,44.5662,19.2035
geotagged/GOPR3865.JPG,2,<a href=gallery/index.php?page=127 target=_blank><img src=geotagged/thumb/GOPR3865.JPG width=200></a><br>Stakići<br> Loznica City<br> Serbia<br> rs,cycloscope,5,44.5777,19.2466
geotagged/GOPR3870.JPG,2,<a href=gallery/index.php?page=128 target=_blank><img src=geotagged/thumb/GOPR3870.JPG width=200></a><br>Jelav<br> Loznica City<br> Serbia<br> rs,cycloscope,5,44.6083,19.2582
geotagged/GOPR3875.JPG,2,<a href=gallery/index.php?page=128 target=_blank><img src=geotagged/thumb/GOPR3875.JPG width=200></a><br>Straza<br> Loznica City<br> Serbia<br> rs,cycloscope,5,44.6463,19.2921
geotagged/GOPR3880.JPG,2,<a href=gallery/index.php?page=128 target=_blank><img src=geotagged/thumb/GOPR3880.JPG width=200></a><br>Novo Selo<br> Loznica City<br> Serbia<br> rs,cycloscope,5,44.6637,19.3328
geotagged/GOPR3885.JPG,2,<a href=gallery/index.php?page=129 target=_blank><img src=geotagged/thumb/GOPR3885.JPG width=200></a><br>Prnjavor<br> Sabac City<br> Serbia<br> rs,cycloscope,5,44.6889,19.368
geotagged/GOPR3890.JPG,2,<a href=gallery/index.php?page=129 target=_blank><img src=geotagged/thumb/GOPR3890.JPG width=200></a><br>Petlovaca<br> Sabac City<br> Serbia<br> rs,cycloscope,5,44.7075,19.4167
geotagged/GOPR3895.JPG,2,<a href=gallery/index.php?page=129 target=_blank><img src=geotagged/thumb/GOPR3895.JPG width=200></a><br>Petlovaca<br> Sabac City<br> Serbia<br> rs,cycloscope,5,44.733,19.4645
geotagged/GOPR3900.JPG,2,<a href=gallery/index.php?page=130 target=_blank><img src=geotagged/thumb/GOPR3900.JPG width=200></a><br>Duvaniste<br> Sabac City<br> Serbia<br> rs,cycloscope,5,44.7374,19.5183
geotagged/GOPR3905.JPG,2,<a href=gallery/index.php?page=130 target=_blank><img src=geotagged/thumb/GOPR3905.JPG width=200></a><br>Slepcevic<br> Sabac City<br> Serbia<br> rs,cycloscope,5,44.7526,19.5573
geotagged/GOPR3910.JPG,2,<a href=gallery/index.php?page=130 target=_blank><img src=geotagged/thumb/GOPR3910.JPG width=200></a><br>Sabac<br> Sabac City<br> Serbia<br> rs,cycloscope,5,44.7704,19.6046
geotagged/GOPR3930.JPG,2,<a href=gallery/index.php?page=131 target=_blank><img src=geotagged/thumb/GOPR3930.JPG width=200></a><br>Sabac<br> Sabac City<br> Serbia<br> rs,cycloscope,5,44.7583,19.6948
geotagged/GOPR3937.JPG,2,<a href=gallery/index.php?page=131 target=_blank><img src=geotagged/thumb/GOPR3937.JPG width=200></a><br>Sabac<br> Sabac City<br> Serbia<br> rs,cycloscope,5,44.769,19.6988
geotagged/GOPR3942.JPG,2,<a href=gallery/index.php?page=131 target=_blank><img src=geotagged/thumb/GOPR3942.JPG width=200></a><br>Ruma Municipality<br> Syrmia District<br> Serbia<br> rs,cycloscope,5,44.7826,19.7138
geotagged/GOPR3947.JPG,2,<a href=gallery/index.php?page=132 target=_blank><img src=geotagged/thumb/GOPR3947.JPG width=200></a><br>Ruma Municipality<br> Syrmia District<br> Serbia<br> rs,cycloscope,5,44.8063,19.7428
geotagged/GOPR3952.JPG,2,<a href=gallery/index.php?page=132 target=_blank><img src=geotagged/thumb/GOPR3952.JPG width=200></a><br>Ruma Municipality<br> Syrmia District<br> Serbia<br> rs,cycloscope,5,44.8216,19.7908
geotagged/GOPR3957.JPG,2,<a href=gallery/index.php?page=132 target=_blank><img src=geotagged/thumb/GOPR3957.JPG width=200></a><br>Ruma Municipality<br> Syrmia District<br> Serbia<br> rs,cycloscope,5,44.8493,19.8284
geotagged/GOPR3965.JPG,2,<a href=gallery/index.php?page=133 target=_blank><img src=geotagged/thumb/GOPR3965.JPG width=200></a><br>Ruma Municipality<br> Syrmia District<br> Serbia<br> rs,cycloscope,5,44.8937,19.866
geotagged/GOPR3967.JPG,2,<a href=gallery/index.php?page=133 target=_blank><img src=geotagged/thumb/GOPR3967.JPG width=200></a><br>Pecinci Municipality<br> Syrmia District<br> Serbia<br> rs,cycloscope,5,44.8914,19.8847
geotagged/GOPR3969.JPG,2,<a href=gallery/index.php?page=133 target=_blank><img src=geotagged/thumb/GOPR3969.JPG width=200></a><br>Pecinci Municipality<br> Syrmia District<br> Serbia<br> rs,cycloscope,5,44.8902,19.9094
geotagged/GOPR3971.JPG,2,<a href=gallery/index.php?page=134 target=_blank><img src=geotagged/thumb/GOPR3971.JPG width=200></a><br>Pecinci Municipality<br> Syrmia District<br> Serbia<br> rs,cycloscope,5,44.8913,19.9327
geotagged/GOPR3973.JPG,2,<a href=gallery/index.php?page=134 target=_blank><img src=geotagged/thumb/GOPR3973.JPG width=200></a><br>Pecinci Municipality<br> Syrmia District<br> Serbia<br> rs,cycloscope,5,44.8876,19.9595
geotagged/GOPR3975.JPG,2,<a href=gallery/index.php?page=134 target=_blank><img src=geotagged/thumb/GOPR3975.JPG width=200></a><br>Pecinci Municipality<br> Syrmia District<br> Serbia<br> rs,cycloscope,5,44.8939,19.9775
geotagged/GOPR3977.JPG,2,<a href=gallery/index.php?page=135 target=_blank><img src=geotagged/thumb/GOPR3977.JPG width=200></a><br>Pecinci Municipality<br> Syrmia District<br> Serbia<br> rs,cycloscope,5,44.8824,20.0074
geotagged/GOPR3979.JPG,2,<a href=gallery/index.php?page=135 target=_blank><img src=geotagged/thumb/GOPR3979.JPG width=200></a><br>Pecinci Municipality<br> Syrmia District<br> Serbia<br> rs,cycloscope,5,44.876,20.0042
geotagged/GOPR3981.JPG,2,<a href=gallery/index.php?page=135 target=_blank><img src=geotagged/thumb/GOPR3981.JPG width=200></a><br>Pecinci Municipality<br> Syrmia District<br> Serbia<br> rs,cycloscope,5,44.8621,20.0253
geotagged/GOPR3983.JPG,2,<a href=gallery/index.php?page=136 target=_blank><img src=geotagged/thumb/GOPR3983.JPG width=200></a><br>Pecinci Municipality<br> Syrmia District<br> Serbia<br> rs,cycloscope,5,44.8579,20.0438
geotagged/GOPR3985.JPG,2,<a href=gallery/index.php?page=136 target=_blank><img src=geotagged/thumb/GOPR3985.JPG width=200></a><br>Pecinci Municipality<br> Syrmia District<br> Serbia<br> rs,cycloscope,5,44.849,20.0531
geotagged/GOPR3987.JPG,2,<a href=gallery/index.php?page=136 target=_blank><img src=geotagged/thumb/GOPR3987.JPG width=200></a><br>Pecinci Municipality<br> Syrmia District<br> Serbia<br> rs,cycloscope,5,44.8321,20.0483
geotagged/GOPR3989.JPG,2,<a href=gallery/index.php?page=137 target=_blank><img src=geotagged/thumb/GOPR3989.JPG width=200></a><br>Pecinci Municipality<br> Syrmia District<br> Serbia<br> rs,cycloscope,5,44.8188,20.0527
geotagged/GOPR3991.JPG,2,<a href=gallery/index.php?page=137 target=_blank><img src=geotagged/thumb/GOPR3991.JPG width=200></a><br>Pecinci Municipality<br> Syrmia District<br> Serbia<br> rs,cycloscope,5,44.8116,20.0813
geotagged/GOPR3993.JPG,2,<a href=gallery/index.php?page=137 target=_blank><img src=geotagged/thumb/GOPR3993.JPG width=200></a><br>Surcin Municipality<br> Belgrade<br> Serbia<br> rs,cycloscope,5,44.8029,20.1105
geotagged/GOPR3995.JPG,2,<a href=gallery/index.php?page=138 target=_blank><img src=geotagged/thumb/GOPR3995.JPG width=200></a><br>Surcin Municipality<br> Belgrade<br> Serbia<br> rs,cycloscope,5,44.7938,20.1483
geotagged/GOPR3997.JPG,2,<a href=gallery/index.php?page=138 target=_blank><img src=geotagged/thumb/GOPR3997.JPG width=200></a><br>Surcin Municipality<br> Belgrade<br> Serbia<br> rs,cycloscope,5,44.7883,20.1772
geotagged/GOPR3999.JPG,2,<a href=gallery/index.php?page=138 target=_blank><img src=geotagged/thumb/GOPR3999.JPG width=200></a><br>Surcin Municipality<br> Belgrade<br> Serbia<br> rs,cycloscope,5,44.7802,20.2051
geotagged/GOPR4005.JPG,2,<a href=gallery/index.php?page=139 target=_blank><img src=geotagged/thumb/GOPR4005.JPG width=200></a><br>Surcin Municipality<br> Belgrade<br> Serbia<br> rs,cycloscope,5,44.7905,20.2704
geotagged/GOPR4015.JPG,2,<a href=gallery/index.php?page=139 target=_blank><img src=geotagged/thumb/GOPR4015.JPG width=200></a><br>Makis<br> Belgrade<br> Belgrade<br> Serbia<br> rs,cycloscope,5,44.7691,20.3458
geotagged/GOPR4025.JPG,2,<a href=gallery/index.php?page=139 target=_blank><img src=geotagged/thumb/GOPR4025.JPG width=200></a><br>New Belgrade<br> Belgrade<br> Belgrade<br> Serbia<br> rs,cycloscope,5,44.8036,20.4171
geotagged/GOPR4035.JPG,2,<a href=gallery/index.php?page=140 target=_blank><img src=geotagged/thumb/GOPR4035.JPG width=200></a><br>Palilula<br> Belgrade<br> Belgrade<br> Serbia<br> rs,cycloscope,5,44.8173,20.4809
geotagged/GOPR4045.JPG,2,<a href=gallery/index.php?page=140 target=_blank><img src=geotagged/thumb/GOPR4045.JPG width=200></a><br>Visnjica<br> Belgrade<br> Belgrade<br> Serbia<br> rs,cycloscope,5,44.8569,20.5542
geotagged/GOPR4059.JPG,2,<a href=gallery/index.php?page=140 target=_blank><img src=geotagged/thumb/GOPR4059.JPG width=200></a><br>Cycloscope project - http://itcycloscope.weebly.com/,cycloscope,5,44.8689,20.6226
geotagged/GOPR4144.JPG,2,<a href=gallery/index.php?page=141 target=_blank><img src=geotagged/thumb/GOPR4144.JPG width=200></a><br>Stara Palanka<br> Bela Crkva Municipality<br> South Banat District<br> Serbia<br> rs,cycloscope,5,44.8539,21.3051
geotagged/GOPR4154.JPG,2,<a href=gallery/index.php?page=141 target=_blank><img src=geotagged/thumb/GOPR4154.JPG width=200></a><br>Bela Crkva Municipality<br> South Banat District<br> Serbia<br> rs,cycloscope,5,44.8179,21.3445
geotagged/GOPR4164.JPG,2,<a href=gallery/index.php?page=141 target=_blank><img src=geotagged/thumb/GOPR4164.JPG width=200></a><br>Baziaș<br> Caraș Severin<br> Romania<br> ro,cycloscope,5,44.7855,21.3813
geotagged/GOPR4174.JPG,2,<a href=gallery/index.php?page=142 target=_blank><img src=geotagged/thumb/GOPR4174.JPG width=200></a><br>Divici<br> Caraș Severin<br> Romania<br> ro,cycloscope,5,44.7726,21.4542
geotagged/GOPR4184.JPG,2,<a href=gallery/index.php?page=142 target=_blank><img src=geotagged/thumb/GOPR4184.JPG width=200></a><br>Veliko Gradiste Municipality<br> Branicevo District<br> Serbia<br> rs,cycloscope,5,44.7537,21.534
geotagged/GOPR4194.JPG,2,<a href=gallery/index.php?page=142 target=_blank><img src=geotagged/thumb/GOPR4194.JPG width=200></a><br>Moldova Veche<br> Caraș Severin<br> Romania<br> ro,cycloscope,5,44.7177,21.6053
geotagged/GOPR4214.JPG,2,<a href=gallery/index.php?page=143 target=_blank><img src=geotagged/thumb/GOPR4214.JPG width=200></a><br>Cycloscope project - http://itcycloscope.weebly.com/,cycloscope,5,44.6544,21.6249
geotagged/GOPR4224.JPG,2,<a href=gallery/index.php?page=143 target=_blank><img src=geotagged/thumb/GOPR4224.JPG width=200></a><br>Cycloscope project - http://itcycloscope.weebly.com/,cycloscope,5,44.6533,21.6437
geotagged/GOPR4234.JPG,2,<a href=gallery/index.php?page=144 target=_blank><img src=geotagged/thumb/GOPR4234.JPG width=200></a><br>Cycloscope project - http://itcycloscope.weebly.com/,cycloscope,5,44.6396,21.9087
geotagged/GOPR4244.JPG,2,<a href=gallery/index.php?page=144 target=_blank><img src=geotagged/thumb/GOPR4244.JPG width=200></a><br>Cycloscope project - http://itcycloscope.weebly.com/,cycloscope,5,44.6396,21.9087
geotagged/GOPR4254.JPG,2,<a href=gallery/index.php?page=144 target=_blank><img src=geotagged/thumb/GOPR4254.JPG width=200></a><br>Cycloscope project - http://itcycloscope.weebly.com/,cycloscope,5,44.6313,21.9792
geotagged/GOPR4264.JPG,2,<a href=gallery/index.php?page=145 target=_blank><img src=geotagged/thumb/GOPR4264.JPG width=200></a><br>Cycloscope project - http://itcycloscope.weebly.com/,cycloscope,5,44.5394,22.0312
geotagged/GOPR4277.JPG,2,<a href=gallery/index.php?page=145 target=_blank><img src=geotagged/thumb/GOPR4277.JPG width=200></a><br>Majdanpek Municipality<br> Bor District<br> Serbia<br> rs,cycloscope,5,44.4471,22.1744
geotagged/GOPR4287.JPG,2,<a href=gallery/index.php?page=145 target=_blank><img src=geotagged/thumb/GOPR4287.JPG width=200></a><br>Majdanpek Municipality<br> Bor District<br> Serbia<br> rs,cycloscope,5,44.518,22.2125
geotagged/GOPR4297.JPG,2,<a href=gallery/index.php?page=146 target=_blank><img src=geotagged/thumb/GOPR4297.JPG width=200></a><br>Majdanpek Municipality<br> Bor District<br> Serbia<br> rs,cycloscope,5,44.5785,22.2519
geotagged/GOPR4307.JPG,2,<a href=gallery/index.php?page=146 target=_blank><img src=geotagged/thumb/GOPR4307.JPG width=200></a><br>Kladovo Municipality<br> Bor District<br> Serbia<br> rs,cycloscope,5,44.6373,22.3073
geotagged/GOPR4317.JPG,2,<a href=gallery/index.php?page=146 target=_blank><img src=geotagged/thumb/GOPR4317.JPG width=200></a><br>Kladovo Municipality<br> Bor District<br> Serbia<br> rs,cycloscope,5,44.6796,22.4029
geotagged/GOPR4327.JPG,2,<a href=gallery/index.php?page=147 target=_blank><img src=geotagged/thumb/GOPR4327.JPG width=200></a><br>Kladovo Municipality<br> Bor District<br> Serbia<br> rs,cycloscope,5,44.6925,22.4875
geotagged/GOPR4337.JPG,2,<a href=gallery/index.php?page=147 target=_blank><img src=geotagged/thumb/GOPR4337.JPG width=200></a><br>Gura Văii<br> Mehedinți<br> Romania<br> ro,cycloscope,5,44.6463,22.5717
geotagged/GOPR4347.JPG,2,<a href=gallery/index.php?page=147 target=_blank><img src=geotagged/thumb/GOPR4347.JPG width=200></a><br>Drobeta-Turnu Severin<br> Mehedinți<br> Romania<br> ro,cycloscope,5,44.6327,22.6564
geotagged/GOPR4357.JPG,2,<a href=gallery/index.php?page=148 target=_blank><img src=geotagged/thumb/GOPR4357.JPG width=200></a><br>Malovăț<br> Mehedinți<br> Romania<br> ro,cycloscope,5,44.6989,22.7069
geotagged/GOPR4367.JPG,2,<a href=gallery/index.php?page=148 target=_blank><img src=geotagged/thumb/GOPR4367.JPG width=200></a><br>Malovăț<br> Mehedinți<br> Romania<br> ro,cycloscope,5,44.7064,22.7217
geotagged/GOPR4377.JPG,2,<a href=gallery/index.php?page=148 target=_blank><img src=geotagged/thumb/GOPR4377.JPG width=200></a><br>Malovăț<br> Mehedinți<br> Romania<br> ro,cycloscope,5,44.7343,22.7724
geotagged/GOPR4387.JPG,2,<a href=gallery/index.php?page=149 target=_blank><img src=geotagged/thumb/GOPR4387.JPG width=200></a><br>Ciovârnășani<br> Mehedinți<br> Romania<br> ro,cycloscope,5,44.753,22.8785
geotagged/GOPR4397.JPG,2,<a href=gallery/index.php?page=149 target=_blank><img src=geotagged/thumb/GOPR4397.JPG width=200></a><br>Meriș<br> Mehedinți<br> Romania<br> ro,cycloscope,5,44.7679,22.9815
geotagged/GOPR4407.JPG,2,<a href=gallery/index.php?page=149 target=_blank><img src=geotagged/thumb/GOPR4407.JPG width=200></a><br>Motru<br> Gorj<br> Romania<br> ro,cycloscope,5,44.8035,22.9691
geotagged/GOPR4417.JPG,2,<a href=gallery/index.php?page=150 target=_blank><img src=geotagged/thumb/GOPR4417.JPG width=200></a><br>Vârtopu<br> Gorj<br> Romania<br> ro,cycloscope,5,44.9123,22.9941
geotagged/GOPR4427.JPG,2,<a href=gallery/index.php?page=150 target=_blank><img src=geotagged/thumb/GOPR4427.JPG width=200></a><br>Telești<br> Gorj<br> Romania<br> ro,cycloscope,5,44.9928,23.1221
geotagged/GOPR4437.JPG,2,<a href=gallery/index.php?page=150 target=_blank><img src=geotagged/thumb/GOPR4437.JPG width=200></a><br>Slobozia<br> Gorj<br> Romania<br> ro,cycloscope,5,45.0281,23.2343
geotagged/GOPR4447.JPG,2,<a href=gallery/index.php?page=151 target=_blank><img src=geotagged/thumb/GOPR4447.JPG width=200></a><br>Târgu Jiu<br> Gorj<br> Romania<br> ro,cycloscope,5,45.0369,23.275
geotagged/GOPR4457.JPG,2,<a href=gallery/index.php?page=151 target=_blank><img src=geotagged/thumb/GOPR4457.JPG width=200></a><br>Târgu Jiu<br> Gorj<br> Romania<br> ro,cycloscope,5,45.0375,23.2842
geotagged/GOPR4482.JPG,2,<a href=gallery/index.php?page=152 target=_blank><img src=geotagged/thumb/GOPR4482.JPG width=200></a><br>Cycloscope project - http://itcycloscope.weebly.com/,cycloscope,5,45.0319,23.3953
geotagged/GOPR4492.JPG,2,<a href=gallery/index.php?page=152 target=_blank><img src=geotagged/thumb/GOPR4492.JPG width=200></a><br>Cycloscope project - http://itcycloscope.weebly.com/,cycloscope,5,45.0333,23.5421
geotagged/GOPR4502.JPG,2,<a href=gallery/index.php?page=152 target=_blank><img src=geotagged/thumb/GOPR4502.JPG width=200></a><br>Cycloscope project - http://itcycloscope.weebly.com/,cycloscope,5,45.1075,23.6422
geotagged/GOPR4512.JPG,2,<a href=gallery/index.php?page=153 target=_blank><img src=geotagged/thumb/GOPR4512.JPG width=200></a><br>Cycloscope project - http://itcycloscope.weebly.com/,cycloscope,5,45.1416,23.7578
geotagged/GOPR4522.JPG,2,<a href=gallery/index.php?page=153 target=_blank><img src=geotagged/thumb/GOPR4522.JPG width=200></a><br>Cycloscope project - http://itcycloscope.weebly.com/,cycloscope,5,45.1224,23.9043
geotagged/GOPR4532.JPG,2,<a href=gallery/index.php?page=153 target=_blank><img src=geotagged/thumb/GOPR4532.JPG width=200></a><br>Cycloscope project - http://itcycloscope.weebly.com/,cycloscope,5,45.1349,24.063
geotagged/GOPR4545.JPG,2,<a href=gallery/index.php?page=154 target=_blank><img src=geotagged/thumb/GOPR4545.JPG width=200></a><br>Titireci<br> Vâlcea<br> Romania<br> ro,cycloscope,5,45.1007,24.2061
geotagged/GOPR4555.JPG,2,<a href=gallery/index.php?page=154 target=_blank><img src=geotagged/thumb/GOPR4555.JPG width=200></a><br>Râmnicu Vâlcea<br> Vâlcea<br> Romania<br> ro,cycloscope,5,45.0723,24.3195
geotagged/GOPR4565.JPG,2,<a href=gallery/index.php?page=154 target=_blank><img src=geotagged/thumb/GOPR4565.JPG width=200></a><br>Râmnicu Vâlcea<br> Vâlcea<br> Romania<br> ro,cycloscope,5,45.1582,24.3728
geotagged/GOPR4575.JPG,2,<a href=gallery/index.php?page=155 target=_blank><img src=geotagged/thumb/GOPR4575.JPG width=200></a><br>Căciulata<br> Vâlcea<br> Romania<br> ro,cycloscope,5,45.2581,24.3296
geotagged/GOPR4585.JPG,2,<a href=gallery/index.php?page=155 target=_blank><img src=geotagged/thumb/GOPR4585.JPG width=200></a><br>Brezoi<br> Vâlcea<br> Romania<br> ro,cycloscope,5,45.3334,24.2603
geotagged/GOPR4597.JPG,2,<a href=gallery/index.php?page=155 target=_blank><img src=geotagged/thumb/GOPR4597.JPG width=200></a><br>Valea lui Stan<br> Vâlcea<br> Romania<br> ro,cycloscope,5,45.3469,24.2008
geotagged/GOPR4608.JPG,2,<a href=gallery/index.php?page=156 target=_blank><img src=geotagged/thumb/GOPR4608.JPG width=200></a><br>Văratica<br> Vâlcea<br> Romania<br> ro,cycloscope,5,45.2997,24.2841
geotagged/GOPR4618.JPG,2,<a href=gallery/index.php?page=156 target=_blank><img src=geotagged/thumb/GOPR4618.JPG width=200></a><br>Sălătrucel<br> Vâlcea<br> Romania<br> ro,cycloscope,5,45.2502,24.394
geotagged/GOPR4628.JPG,2,<a href=gallery/index.php?page=156 target=_blank><img src=geotagged/thumb/GOPR4628.JPG width=200></a><br>Ianculești<br> Argeș<br> Romania<br> ro,cycloscope,5,45.2499,24.4754
geotagged/GOPR4640.JPG,2,<a href=gallery/index.php?page=157 target=_blank><img src=geotagged/thumb/GOPR4640.JPG width=200></a><br>Cycloscope project - http://itcycloscope.weebly.com/,cycloscope,5,45.2174,24.5664
geotagged/GOPR4650.JPG,2,<a href=gallery/index.php?page=157 target=_blank><img src=geotagged/thumb/GOPR4650.JPG width=200></a><br>Cycloscope project - http://itcycloscope.weebly.com/,cycloscope,5,45.165,24.6711
geotagged/GOPR4661.JPG,2,<a href=gallery/index.php?page=157 target=_blank><img src=geotagged/thumb/GOPR4661.JPG width=200></a><br>Băiculești<br> Argeș<br> Romania<br> ro,cycloscope,5,45.0811,24.6814
geotagged/GOPR4671.JPG,2,<a href=gallery/index.php?page=158 target=_blank><img src=geotagged/thumb/GOPR4671.JPG width=200></a><br>Vărzaru<br> Argeș<br> Romania<br> ro,cycloscope,5,44.9432,24.7702
geotagged/GOPR4681.JPG,2,<a href=gallery/index.php?page=158 target=_blank><img src=geotagged/thumb/GOPR4681.JPG width=200></a><br>Pitești<br> Argeș<br> Romania<br> ro,cycloscope,5,44.8492,24.881
geotagged/GOPR4691.JPG,2,<a href=gallery/index.php?page=158 target=_blank><img src=geotagged/thumb/GOPR4691.JPG width=200></a><br>Broșteni<br> Argeș<br> Romania<br> ro,cycloscope,5,44.7306,24.8616
geotagged/GOPR4701.JPG,2,<a href=gallery/index.php?page=159 target=_blank><img src=geotagged/thumb/GOPR4701.JPG width=200></a><br>Șerboeni<br> Argeș<br> Romania<br> ro,cycloscope,5,44.6155,24.9021
geotagged/GOPR4711.JPG,2,<a href=gallery/index.php?page=159 target=_blank><img src=geotagged/thumb/GOPR4711.JPG width=200></a><br>Izvoru<br> Argeș<br> Romania<br> ro,cycloscope,5,44.498,25.0584
geotagged/GOPR4727.JPG,2,<a href=gallery/index.php?page=159 target=_blank><img src=geotagged/thumb/GOPR4727.JPG width=200></a><br>Popești<br> Argeș<br> Romania<br> ro,cycloscope,5,44.4418,25.0989
geotagged/GOPR4737.JPG,2,<a href=gallery/index.php?page=160 target=_blank><img src=geotagged/thumb/GOPR4737.JPG width=200></a><br>Tătărăștii de Jos<br> Teleorman<br> Romania<br> ro,cycloscope,5,44.3488,25.1919
geotagged/GOPR4747.JPG,2,<a href=gallery/index.php?page=160 target=_blank><img src=geotagged/thumb/GOPR4747.JPG width=200></a><br>Perii Broșteni<br> Teleorman<br> Romania<br> ro,cycloscope,5,44.2193,25.2589
geotagged/GOPR4757.JPG,2,<a href=gallery/index.php?page=160 target=_blank><img src=geotagged/thumb/GOPR4757.JPG width=200></a><br>Călinești<br> Teleorman<br> Romania<br> ro,cycloscope,5,44.061,25.2363
geotagged/GOPR4768.JPG,2,<a href=gallery/index.php?page=161 target=_blank><img src=geotagged/thumb/GOPR4768.JPG width=200></a><br>Alexandria<br> Teleorman<br> Romania<br> ro,cycloscope,5,43.9777,25.3508
geotagged/GOPR4778.JPG,2,<a href=gallery/index.php?page=161 target=_blank><img src=geotagged/thumb/GOPR4778.JPG width=200></a><br>Vlașin<br> Giurgiu<br> Romania<br> ro,cycloscope,5,44.1017,25.857
geotagged/GOPR4791.JPG,2,<a href=gallery/index.php?page=161 target=_blank><img src=geotagged/thumb/GOPR4791.JPG width=200></a><br>ж.к. Дружба 3<br> Ruse<br> Ruse Region<br> Bulgaria<br> bg,cycloscope,5,43.825,25.9798
geotagged/GOPR4816.JPG,2,<a href=gallery/index.php?page=162 target=_blank><img src=geotagged/thumb/GOPR4816.JPG width=200></a><br>ж. к. Орел<br> Razgrad<br> Razgrad Region<br> Bulgaria<br> bg,cycloscope,5,43.5242,26.5293
geotagged/GOPR4826.JPG,2,<a href=gallery/index.php?page=162 target=_blank><img src=geotagged/thumb/GOPR4826.JPG width=200></a><br>Razgrad<br> Razgrad Region<br> Bulgaria<br> bg,cycloscope,5,43.5222,26.5617
geotagged/GOPR4943.JPG,2,<a href=gallery/index.php?page=162 target=_blank><img src=geotagged/thumb/GOPR4943.JPG width=200></a><br>Razgrad<br> Razgrad Region<br> Bulgaria<br> bg,cycloscope,5,43.5072,26.5938
geotagged/GOPR4953.JPG,2,<a href=gallery/index.php?page=163 target=_blank><img src=geotagged/thumb/GOPR4953.JPG width=200></a><br>Hitrino<br> Shumen Region<br> Bulgaria<br> bg,cycloscope,5,43.4954,26.6316
geotagged/GOPR4963.JPG,2,<a href=gallery/index.php?page=163 target=_blank><img src=geotagged/thumb/GOPR4963.JPG width=200></a><br>Hitrino<br> Shumen Region<br> Bulgaria<br> bg,cycloscope,5,43.4695,26.6427
geotagged/GOPR4973.JPG,2,<a href=gallery/index.php?page=163 target=_blank><img src=geotagged/thumb/GOPR4973.JPG width=200></a><br>Hitrino<br> Shumen Region<br> Bulgaria<br> bg,cycloscope,5,43.4377,26.67
geotagged/GOPR4983.JPG,2,<a href=gallery/index.php?page=164 target=_blank><img src=geotagged/thumb/GOPR4983.JPG width=200></a><br>Hitrino<br> Shumen Region<br> Bulgaria<br> bg,cycloscope,5,43.4213,26.6992
geotagged/GOPR4993.JPG,2,<a href=gallery/index.php?page=164 target=_blank><img src=geotagged/thumb/GOPR4993.JPG width=200></a><br>Hitrino<br> Shumen Region<br> Bulgaria<br> bg,cycloscope,5,43.4102,26.7317
geotagged/GOPR5003.JPG,2,<a href=gallery/index.php?page=164 target=_blank><img src=geotagged/thumb/GOPR5003.JPG width=200></a><br>Hitrino<br> Shumen Region<br> Bulgaria<br> bg,cycloscope,5,43.4072,26.7524
geotagged/GOPR5013.JPG,2,<a href=gallery/index.php?page=165 target=_blank><img src=geotagged/thumb/GOPR5013.JPG width=200></a><br>Hitrino<br> Shumen Region<br> Bulgaria<br> bg,cycloscope,5,43.3982,26.7731
geotagged/GOPR5023.JPG,2,<a href=gallery/index.php?page=165 target=_blank><img src=geotagged/thumb/GOPR5023.JPG width=200></a><br>Hitrino<br> Shumen Region<br> Bulgaria<br> bg,cycloscope,5,43.3767,26.8401
geotagged/GOPR5039.JPG,2,<a href=gallery/index.php?page=165 target=_blank><img src=geotagged/thumb/GOPR5039.JPG width=200></a><br>Hitrino<br> Shumen Region<br> Bulgaria<br> bg,cycloscope,5,43.3566,26.8576
geotagged/GOPR5049.JPG,2,<a href=gallery/index.php?page=166 target=_blank><img src=geotagged/thumb/GOPR5049.JPG width=200></a><br>Shumen<br> Shumen Region<br> Bulgaria<br> bg,cycloscope,5,43.3289,26.8956
geotagged/GOPR5059.JPG,2,<a href=gallery/index.php?page=166 target=_blank><img src=geotagged/thumb/GOPR5059.JPG width=200></a><br>кв. Макак<br> Shumen<br> Shumen Region<br> Bulgaria<br> bg,cycloscope,5,43.3121,26.9279
geotagged/GOPR5069.JPG,2,<a href=gallery/index.php?page=166 target=_blank><img src=geotagged/thumb/GOPR5069.JPG width=200></a><br>кв. Макак<br> Shumen<br> Shumen Region<br> Bulgaria<br> bg,cycloscope,5,43.3022,26.9608
geotagged/GOPR5079.JPG,2,<a href=gallery/index.php?page=167 target=_blank><img src=geotagged/thumb/GOPR5079.JPG width=200></a><br>кв. Мътница<br> Shumen<br> Shumen Region<br> Bulgaria<br> bg,cycloscope,5,43.2885,26.9958
geotagged/GOPR5089.JPG,2,<a href=gallery/index.php?page=167 target=_blank><img src=geotagged/thumb/GOPR5089.JPG width=200></a><br>кв. Мътница<br> Shumen<br> Shumen Region<br> Bulgaria<br> bg,cycloscope,5,43.2908,27.0463
geotagged/GOPR5107.JPG,2,<a href=gallery/index.php?page=167 target=_blank><img src=geotagged/thumb/GOPR5107.JPG width=200></a><br>кв. Мътница<br> Shumen<br> Shumen Region<br> Bulgaria<br> bg,cycloscope,5,43.2966,27.0682
geotagged/GOPR5117.JPG,2,<a href=gallery/index.php?page=168 target=_blank><img src=geotagged/thumb/GOPR5117.JPG width=200></a><br>кв. Мътница<br> Shumen<br> Shumen Region<br> Bulgaria<br> bg,cycloscope,5,43.3039,27.1058
geotagged/GOPR5127.JPG,2,<a href=gallery/index.php?page=168 target=_blank><img src=geotagged/thumb/GOPR5127.JPG width=200></a><br>Kaspichan<br> Shumen Region<br> Bulgaria<br> bg,cycloscope,5,43.3154,27.1506
geotagged/GOPR5137.JPG,2,<a href=gallery/index.php?page=168 target=_blank><img src=geotagged/thumb/GOPR5137.JPG width=200></a><br>Novi Pazar<br> Shumen Region<br> Bulgaria<br> bg,cycloscope,5,43.3269,27.1711
geotagged/GOPR5147.JPG,2,<a href=gallery/index.php?page=169 target=_blank><img src=geotagged/thumb/GOPR5147.JPG width=200></a><br>Novi Pazar<br> Shumen Region<br> Bulgaria<br> bg,cycloscope,5,43.3394,27.2075
geotagged/GOPR5157.JPG,2,<a href=gallery/index.php?page=169 target=_blank><img src=geotagged/thumb/GOPR5157.JPG width=200></a><br>Novi Pazar<br> Shumen Region<br> Bulgaria<br> bg,cycloscope,5,43.3371,27.2422
geotagged/GOPR5167.JPG,2,<a href=gallery/index.php?page=169 target=_blank><img src=geotagged/thumb/GOPR5167.JPG width=200></a><br>Novi Pazar<br> Shumen Region<br> Bulgaria<br> bg,cycloscope,5,43.3321,27.2676
geotagged/GOPR5177.JPG,2,<a href=gallery/index.php?page=170 target=_blank><img src=geotagged/thumb/GOPR5177.JPG width=200></a><br>Novi Pazar<br> Shumen Region<br> Bulgaria<br> bg,cycloscope,5,43.3154,27.2965
geotagged/GOPR5187.JPG,2,<a href=gallery/index.php?page=170 target=_blank><img src=geotagged/thumb/GOPR5187.JPG width=200></a><br>Vetrino municipality<br> Varna Region<br> Bulgaria<br> bg,cycloscope,5,43.3164,27.3211
geotagged/GOPR5197.JPG,2,<a href=gallery/index.php?page=170 target=_blank><img src=geotagged/thumb/GOPR5197.JPG width=200></a><br>Vetrino municipality<br> Varna Region<br> Bulgaria<br> bg,cycloscope,5,43.3181,27.3708
geotagged/GOPR5207.JPG,2,<a href=gallery/index.php?page=171 target=_blank><img src=geotagged/thumb/GOPR5207.JPG width=200></a><br>Vetrino municipality<br> Varna Region<br> Bulgaria<br> bg,cycloscope,5,43.3142,27.3966
geotagged/GOPR5217.JPG,2,<a href=gallery/index.php?page=171 target=_blank><img src=geotagged/thumb/GOPR5217.JPG width=200></a><br>Vetrino municipality<br> Varna Region<br> Bulgaria<br> bg,cycloscope,5,43.3116,27.4306
geotagged/GOPR5227.JPG,2,<a href=gallery/index.php?page=171 target=_blank><img src=geotagged/thumb/GOPR5227.JPG width=200></a><br>Vetrino municipality<br> Varna Region<br> Bulgaria<br> bg,cycloscope,5,43.3072,27.4484
geotagged/GOPR5237.JPG,2,<a href=gallery/index.php?page=172 target=_blank><img src=geotagged/thumb/GOPR5237.JPG width=200></a><br>Vetrino municipality<br> Varna Region<br> Bulgaria<br> bg,cycloscope,5,43.2969,27.4757
geotagged/GOPR5247.JPG,2,<a href=gallery/index.php?page=172 target=_blank><img src=geotagged/thumb/GOPR5247.JPG width=200></a><br>Vetrino municipality<br> Varna Region<br> Bulgaria<br> bg,cycloscope,5,43.2612,27.5156
geotagged/GOPR5257.JPG,2,<a href=gallery/index.php?page=172 target=_blank><img src=geotagged/thumb/GOPR5257.JPG width=200></a><br>Devnia<br> Varna Region<br> Bulgaria<br> bg,cycloscope,5,43.2397,27.5365
geotagged/GOPR5267.JPG,2,<a href=gallery/index.php?page=173 target=_blank><img src=geotagged/thumb/GOPR5267.JPG width=200></a><br>Devnia<br> Varna Region<br> Bulgaria<br> bg,cycloscope,5,43.227,27.5963
geotagged/GOPR5277.JPG,2,<a href=gallery/index.php?page=173 target=_blank><img src=geotagged/thumb/GOPR5277.JPG width=200></a><br>Devnia<br> Varna Region<br> Bulgaria<br> bg,cycloscope,5,43.2279,27.6201
geotagged/GOPR5287.JPG,2,<a href=gallery/index.php?page=173 target=_blank><img src=geotagged/thumb/GOPR5287.JPG width=200></a><br>Devnia<br> Varna Region<br> Bulgaria<br> bg,cycloscope,5,43.2312,27.6387
geotagged/GOPR5297.JPG,2,<a href=gallery/index.php?page=174 target=_blank><img src=geotagged/thumb/GOPR5297.JPG width=200></a><br>Aksakovo Municipality<br> Varna Region<br> Bulgaria<br> bg,cycloscope,5,43.227,27.6573
geotagged/GOPR5307.JPG,2,<a href=gallery/index.php?page=174 target=_blank><img src=geotagged/thumb/GOPR5307.JPG width=200></a><br>Aksakovo Municipality<br> Varna Region<br> Bulgaria<br> bg,cycloscope,5,43.2285,27.6996
geotagged/GOPR5317.JPG,2,<a href=gallery/index.php?page=174 target=_blank><img src=geotagged/thumb/GOPR5317.JPG width=200></a><br>Aksakovo Municipality<br> Varna Region<br> Bulgaria<br> bg,cycloscope,5,43.2295,27.7588
geotagged/GOPR5327.JPG,2,<a href=gallery/index.php?page=175 target=_blank><img src=geotagged/thumb/GOPR5327.JPG width=200></a><br>Aksakovo Municipality<br> Varna Region<br> Bulgaria<br> bg,cycloscope,5,43.23,27.7971
geotagged/GOPR5337.JPG,2,<a href=gallery/index.php?page=175 target=_blank><img src=geotagged/thumb/GOPR5337.JPG width=200></a><br>Aksakovo Municipality<br> Varna Region<br> Bulgaria<br> bg,cycloscope,5,43.2292,27.8279
geotagged/GOPR5347.JPG,2,<a href=gallery/index.php?page=175 target=_blank><img src=geotagged/thumb/GOPR5347.JPG width=200></a><br>Аспарухово<br> Varna<br> Varna Region<br> Bulgaria<br> bg,cycloscope,5,43.2196,27.8744
geotagged/GOPR5357.JPG,2,<a href=gallery/index.php?page=176 target=_blank><img src=geotagged/thumb/GOPR5357.JPG width=200></a><br>Аспарухово<br> Varna<br> Varna Region<br> Bulgaria<br> bg,cycloscope,5,43.199,27.9096
geotagged/GOPR5367.JPG,2,<a href=gallery/index.php?page=176 target=_blank><img src=geotagged/thumb/GOPR5367.JPG width=200></a><br>Аспарухово<br> Varna<br> Varna Region<br> Bulgaria<br> bg,cycloscope,5,43.2027,27.9236
geotagged/GOPR5387.JPG,2,<a href=gallery/index.php?page=176 target=_blank><img src=geotagged/thumb/GOPR5387.JPG width=200></a><br>Cycloscope project - http://itcycloscope.weebly.com/,cycloscope,5,43.2055,27.9256
geotagged/GOPR5398.JPG,2,<a href=gallery/index.php?page=177 target=_blank><img src=geotagged/thumb/GOPR5398.JPG width=200></a><br>Cycloscope project - http://itcycloscope.weebly.com/,cycloscope,5,43.2104,27.9415
geotagged/GOPR5409.JPG,2,<a href=gallery/index.php?page=177 target=_blank><img src=geotagged/thumb/GOPR5409.JPG width=200></a><br>Cycloscope project - http://itcycloscope.weebly.com/,cycloscope,5,43.2157,27.9579
geotagged/GOPR5421.JPG,2,<a href=gallery/index.php?page=177 target=_blank><img src=geotagged/thumb/GOPR5421.JPG width=200></a><br>Cycloscope project - http://itcycloscope.weebly.com/,cycloscope,5,43.2228,27.982
geotagged/GOPR5434.JPG,2,<a href=gallery/index.php?page=178 target=_blank><img src=geotagged/thumb/GOPR5434.JPG width=200></a><br>Cycloscope project - http://itcycloscope.weebly.com/,cycloscope,5,43.2426,28.0158
geotagged/GOPR5448.JPG,2,<a href=gallery/index.php?page=178 target=_blank><img src=geotagged/thumb/GOPR5448.JPG width=200></a><br>Cycloscope project - http://itcycloscope.weebly.com/,cycloscope,5,43.258,28.017
geotagged/GOPR5459.JPG,2,<a href=gallery/index.php?page=178 target=_blank><img src=geotagged/thumb/GOPR5459.JPG width=200></a><br>Cycloscope project - http://itcycloscope.weebly.com/,cycloscope,5,43.2735,28.0253
geotagged/GOPR5471.JPG,2,<a href=gallery/index.php?page=179 target=_blank><img src=geotagged/thumb/GOPR5471.JPG width=200></a><br>Cycloscope project - http://itcycloscope.weebly.com/,cycloscope,5,43.2879,28.0443
geotagged/GOPR5488.JPG,2,<a href=gallery/index.php?page=179 target=_blank><img src=geotagged/thumb/GOPR5488.JPG width=200></a><br>Cycloscope project - http://itcycloscope.weebly.com/,cycloscope,5,43.2849,28.0339
geotagged/GOPR5499.JPG,2,<a href=gallery/index.php?page=179 target=_blank><img src=geotagged/thumb/GOPR5499.JPG width=200></a><br>Cycloscope project - http://itcycloscope.weebly.com/,cycloscope,5,43.2931,28.0335
geotagged/GOPR5510.JPG,2,<a href=gallery/index.php?page=180 target=_blank><img src=geotagged/thumb/GOPR5510.JPG width=200></a><br>Cycloscope project - http://itcycloscope.weebly.com/,cycloscope,5,43.293,28.0187
geotagged/GOPR5521.JPG,2,<a href=gallery/index.php?page=180 target=_blank><img src=geotagged/thumb/GOPR5521.JPG width=200></a><br>Cycloscope project - http://itcycloscope.weebly.com/,cycloscope,5,43.3077,28.0161
geotagged/GOPR5531.JPG,2,<a href=gallery/index.php?page=180 target=_blank><img src=geotagged/thumb/GOPR5531.JPG width=200></a><br>Aksakovo Municipality<br> Varna Region<br> Bulgaria<br> bg,cycloscope,5,43.3175,28.0129
geotagged/GOPR5541.JPG,2,<a href=gallery/index.php?page=181 target=_blank><img src=geotagged/thumb/GOPR5541.JPG width=200></a><br>Aksakovo Municipality<br> Varna Region<br> Bulgaria<br> bg,cycloscope,5,43.3194,28.0097
geotagged/GOPR5735.JPG,2,<a href=gallery/index.php?page=181 target=_blank><img src=geotagged/thumb/GOPR5735.JPG width=200></a><br>Aksakovo Municipality<br> Varna Region<br> Bulgaria<br> bg,cycloscope,5,43.3082,28.0163
